{
"type": "FeatureCollection",
"name": "PuntosDeInteres",
"crs": { "type": "name", "properties": { "name": "urn:ogc:def:crs:OGC:1.3:CRS84" } },
"xy_coordinate_resolution": 1e-06,
"features": [
{ "type": "Feature", "properties": { "ele": 4.2, "time": "2020-08-11T23:35:57Z", "magvar": null, "geoidheight": null, "name": "Porto de Camariñas", "cmt": "Porto de Camariñas", "desc": "Porto de Camariñas", "src": null, "link1_href": null, "link1_text": null, "link1_type": null, "link2_href": null, "link2_text": null, "link2_type": null, "sym": null, "type": null, "fix": null, "sat": null, "hdop": null, "vdop": null, "pdop": null, "ageofdgpsdata": null, "dgpsid": null }, "geometry": { "type": "Point", "coordinates": [ -9.184173, 43.129117, 4.2 ] } },
{ "type": "Feature", "properties": { "ele": 4.3, "time": "2020-08-11T23:35:57Z", "magvar": null, "geoidheight": null, "name": "Praia de Area da Vila", "cmt": "Praia de Area da Vila", "desc": "Praia de Area da Vila", "src": null, "link1_href": null, "link1_text": null, "link1_type": null, "link2_href": null, "link2_text": null, "link2_type": null, "sym": null, "type": null, "fix": null, "sat": null, "hdop": null, "vdop": null, "pdop": null, "ageofdgpsdata": null, "dgpsid": null }, "geometry": { "type": "Point", "coordinates": [ -9.177475, 43.138249, 4.3 ] } },
{ "type": "Feature", "properties": { "ele": 9.6, "time": "2020-08-11T23:35:57Z", "magvar": null, "geoidheight": null, "name": "Enseada da Basa", "cmt": "Enseada da Basa", "desc": "Enseada da Basa", "src": null, "link1_href": null, "link1_text": null, "link1_type": null, "link2_href": null, "link2_text": null, "link2_type": null, "sym": null, "type": null, "fix": null, "sat": null, "hdop": null, "vdop": null, "pdop": null, "ageofdgpsdata": null, "dgpsid": null }, "geometry": { "type": "Point", "coordinates": [ -9.170053, 43.140887, 9.6 ] } },
{ "type": "Feature", "properties": { "ele": 44.5, "time": "2020-08-11T23:35:57Z", "magvar": null, "geoidheight": null, "name": "Ruta da Insua", "cmt": "Ruta da Insua", "desc": "Ruta da Insua", "src": null, "link1_href": null, "link1_text": null, "link1_type": null, "link2_href": null, "link2_text": null, "link2_type": null, "sym": null, "type": null, "fix": null, "sat": null, "hdop": null, "vdop": null, "pdop": null, "ageofdgpsdata": null, "dgpsid": null }, "geometry": { "type": "Point", "coordinates": [ -9.160919, 43.146057, 44.5 ] } },
{ "type": "Feature", "properties": { "ele": 5.6, "time": "2020-08-11T23:35:57Z", "magvar": null, "geoidheight": null, "name": "Praia de Ariña Branca", "cmt": "Praia de Ariña Branca", "desc": "Praia de Ariña Branca", "src": null, "link1_href": null, "link1_text": null, "link1_type": null, "link2_href": null, "link2_text": null, "link2_type": null, "sym": null, "type": null, "fix": null, "sat": null, "hdop": null, "vdop": null, "pdop": null, "ageofdgpsdata": null, "dgpsid": null }, "geometry": { "type": "Point", "coordinates": [ -9.165767, 43.130878, 5.6 ] } },
{ "type": "Feature", "properties": { "ele": 12.4, "time": "2020-08-11T23:35:57Z", "magvar": null, "geoidheight": null, "name": "Praia de Rego dos Coiros", "cmt": "Praia de Rego dos Coiros", "desc": "Praia de Rego dos Coiros", "src": null, "link1_href": null, "link1_text": null, "link1_type": null, "link2_href": null, "link2_text": null, "link2_type": null, "sym": null, "type": null, "fix": null, "sat": null, "hdop": null, "vdop": null, "pdop": null, "ageofdgpsdata": null, "dgpsid": null }, "geometry": { "type": "Point", "coordinates": [ -9.162121, 43.128891, 12.4 ] } },
{ "type": "Feature", "properties": { "ele": 8.0, "time": "2020-08-11T23:35:57Z", "magvar": null, "geoidheight": null, "name": "Praia de Ariño", "cmt": "Praia de Ariño", "desc": "Praia de Ariño", "src": null, "link1_href": null, "link1_text": null, "link1_type": null, "link2_href": null, "link2_text": null, "link2_type": null, "sym": null, "type": null, "fix": null, "sat": null, "hdop": null, "vdop": null, "pdop": null, "ageofdgpsdata": null, "dgpsid": null }, "geometry": { "type": "Point", "coordinates": [ -9.155853, 43.130373, 8.0 ] } },
{ "type": "Feature", "properties": { "ele": 17.6, "time": "2020-08-11T23:35:57Z", "magvar": null, "geoidheight": null, "name": "Fonte de Tasaraño", "cmt": "Fonte de Tasaraño", "desc": "Fonte de Tasaraño", "src": null, "link1_href": null, "link1_text": null, "link1_type": null, "link2_href": null, "link2_text": null, "link2_type": null, "sym": null, "type": null, "fix": null, "sat": null, "hdop": null, "vdop": null, "pdop": null, "ageofdgpsdata": null, "dgpsid": null }, "geometry": { "type": "Point", "coordinates": [ -9.147598, 43.139051, 17.6 ] } },
{ "type": "Feature", "properties": { "ele": 39.4, "time": "2020-08-11T23:35:57Z", "magvar": null, "geoidheight": null, "name": "Dor", "cmt": "Dor", "desc": "Dor", "src": null, "link1_href": null, "link1_text": null, "link1_type": null, "link2_href": null, "link2_text": null, "link2_type": null, "sym": null, "type": null, "fix": null, "sat": null, "hdop": null, "vdop": null, "pdop": null, "ageofdgpsdata": null, "dgpsid": null }, "geometry": { "type": "Point", "coordinates": [ -9.137717, 43.138413, 39.4 ] } },
{ "type": "Feature", "properties": { "ele": 36.1, "time": "2020-08-11T23:35:57Z", "magvar": null, "geoidheight": null, "name": "O Allo", "cmt": "O Allo", "desc": "O Allo", "src": null, "link1_href": null, "link1_text": null, "link1_type": null, "link2_href": null, "link2_text": null, "link2_type": null, "sym": null, "type": null, "fix": null, "sat": null, "hdop": null, "vdop": null, "pdop": null, "ageofdgpsdata": null, "dgpsid": null }, "geometry": { "type": "Point", "coordinates": [ -9.126345, 43.138705, 36.1 ] } },
{ "type": "Feature", "properties": { "ele": 2.7, "time": "2020-08-11T23:35:57Z", "magvar": null, "geoidheight": null, "name": "Ponte do Porto", "cmt": "Ponte do Porto", "desc": "Ponte do Porto", "src": null, "link1_href": null, "link1_text": null, "link1_type": null, "link2_href": null, "link2_text": null, "link2_type": null, "sym": null, "type": null, "fix": null, "sat": null, "hdop": null, "vdop": null, "pdop": null, "ageofdgpsdata": null, "dgpsid": null }, "geometry": { "type": "Point", "coordinates": [ -9.115465, 43.137873, 2.7 ] } },
{ "type": "Feature", "properties": { "ele": 4.9, "time": "2020-08-11T23:35:57Z", "magvar": null, "geoidheight": null, "name": "Muiño de Mareas", "cmt": "Muiño de Mareas", "desc": "Muiño de Mareas", "src": null, "link1_href": null, "link1_text": null, "link1_type": null, "link2_href": null, "link2_text": null, "link2_type": null, "sym": null, "type": null, "fix": null, "sat": null, "hdop": null, "vdop": null, "pdop": null, "ageofdgpsdata": null, "dgpsid": null }, "geometry": { "type": "Point", "coordinates": [ -9.126532, 43.132936, 4.9 ] } },
{ "type": "Feature", "properties": { "ele": 8.8, "time": "2020-08-11T23:35:57Z", "magvar": null, "geoidheight": null, "name": "Paseo Fluvial", "cmt": "Paseo Fluvial", "desc": "Paseo Fluvial", "src": null, "link1_href": null, "link1_text": null, "link1_type": null, "link2_href": null, "link2_text": null, "link2_type": null, "sym": null, "type": null, "fix": null, "sat": null, "hdop": null, "vdop": null, "pdop": null, "ageofdgpsdata": null, "dgpsid": null }, "geometry": { "type": "Point", "coordinates": [ -9.125981, 43.132052, 8.8 ] } },
{ "type": "Feature", "properties": { "ele": 9.1, "time": "2020-08-11T23:35:57Z", "magvar": null, "geoidheight": null, "name": "Igrexa de Santiago de Cereixo", "cmt": "Igrexa de Santiago de Cereixo", "desc": "Igrexa de Santiago de Cereixo", "src": null, "link1_href": null, "link1_text": null, "link1_type": null, "link2_href": null, "link2_text": null, "link2_type": null, "sym": null, "type": null, "fix": null, "sat": null, "hdop": null, "vdop": null, "pdop": null, "ageofdgpsdata": null, "dgpsid": null }, "geometry": { "type": "Point", "coordinates": [ -9.126423, 43.132158, 9.1 ] } },
{ "type": "Feature", "properties": { "ele": 12.7, "time": "2020-08-11T23:35:57Z", "magvar": null, "geoidheight": null, "name": "Torres de Cereixo", "cmt": "Torres de Cereixo", "desc": "Torres de Cereixo", "src": null, "link1_href": null, "link1_text": null, "link1_type": null, "link2_href": null, "link2_text": null, "link2_type": null, "sym": null, "type": null, "fix": null, "sat": null, "hdop": null, "vdop": null, "pdop": null, "ageofdgpsdata": null, "dgpsid": null }, "geometry": { "type": "Point", "coordinates": [ -9.127136, 43.132342, 12.7 ] } },
{ "type": "Feature", "properties": { "ele": 10.4, "time": "2020-08-11T23:35:57Z", "magvar": null, "geoidheight": null, "name": "Carballo de Cereixo", "cmt": "Carballo de Cereixo", "desc": "Carballo de Cereixo", "src": null, "link1_href": null, "link1_text": null, "link1_type": null, "link2_href": null, "link2_text": null, "link2_type": null, "sym": null, "type": null, "fix": null, "sat": null, "hdop": null, "vdop": null, "pdop": null, "ageofdgpsdata": null, "dgpsid": null }, "geometry": { "type": "Point", "coordinates": [ -9.127042, 43.131997, 10.4 ] } },
{ "type": "Feature", "properties": { "ele": 1.4, "time": "2020-08-11T23:35:57Z", "magvar": null, "geoidheight": null, "name": "Praia de Area Grande", "cmt": "Praia de Area Grande", "desc": "Praia de Area Grande", "src": null, "link1_href": null, "link1_text": null, "link1_type": null, "link2_href": null, "link2_text": null, "link2_type": null, "sym": null, "type": null, "fix": null, "sat": null, "hdop": null, "vdop": null, "pdop": null, "ageofdgpsdata": null, "dgpsid": null }, "geometry": { "type": "Point", "coordinates": [ -9.15288, 43.126698, 1.4 ] } },
{ "type": "Feature", "properties": { "ele": 8.5, "time": "2020-08-11T23:35:57Z", "magvar": null, "geoidheight": null, "name": "Praia de Leis", "cmt": "Praia de Leis", "desc": "Praia de Leis", "src": null, "link1_href": null, "link1_text": null, "link1_type": null, "link2_href": null, "link2_text": null, "link2_type": null, "sym": null, "type": null, "fix": null, "sat": null, "hdop": null, "vdop": null, "pdop": null, "ageofdgpsdata": null, "dgpsid": null }, "geometry": { "type": "Point", "coordinates": [ -9.163342, 43.114659, 8.5 ] } },
{ "type": "Feature", "properties": { "ele": 0.3, "time": "2020-08-11T23:35:57Z", "magvar": null, "geoidheight": null, "name": "Faro da Punta do Lago", "cmt": "Faro da Punta do Lago", "desc": "Faro da Punta do Lago", "src": null, "link1_href": null, "link1_text": null, "link1_type": null, "link2_href": null, "link2_text": null, "link2_type": null, "sym": null, "type": null, "fix": null, "sat": null, "hdop": null, "vdop": null, "pdop": null, "ageofdgpsdata": null, "dgpsid": null }, "geometry": { "type": "Point", "coordinates": [ -9.166309, 43.110173, 0.3 ] } },
{ "type": "Feature", "properties": { "ele": 2.6, "time": "2020-08-11T23:35:57Z", "magvar": null, "geoidheight": null, "name": "Praia do Lago", "cmt": "Praia do Lago", "desc": "Praia do Lago", "src": null, "link1_href": null, "link1_text": null, "link1_type": null, "link2_href": null, "link2_text": null, "link2_type": null, "sym": null, "type": null, "fix": null, "sat": null, "hdop": null, "vdop": null, "pdop": null, "ageofdgpsdata": null, "dgpsid": null }, "geometry": { "type": "Point", "coordinates": [ -9.165944, 43.10643, 2.6 ] } },
{ "type": "Feature", "properties": { "ele": 11.9, "time": "2020-08-11T23:35:57Z", "magvar": null, "geoidheight": null, "name": "Pinar, Restaurantes e Campings", "cmt": "Pinar, Restaurantes e Campings", "desc": "Pinar, Restaurantes e Campings", "src": null, "link1_href": null, "link1_text": null, "link1_type": null, "link2_href": null, "link2_text": null, "link2_type": null, "sym": null, "type": null, "fix": null, "sat": null, "hdop": null, "vdop": null, "pdop": null, "ageofdgpsdata": null, "dgpsid": null }, "geometry": { "type": "Point", "coordinates": [ -9.164746, 43.104716, 11.9 ] } },
{ "type": "Feature", "properties": { "ele": 21.6, "time": "2020-08-11T23:35:57Z", "magvar": null, "geoidheight": null, "name": "Merexo", "cmt": "Merexo", "desc": "Merexo", "src": null, "link1_href": null, "link1_text": null, "link1_type": null, "link2_href": null, "link2_text": null, "link2_type": null, "sym": null, "type": null, "fix": null, "sat": null, "hdop": null, "vdop": null, "pdop": null, "ageofdgpsdata": null, "dgpsid": null }, "geometry": { "type": "Point", "coordinates": [ -9.177693, 43.099372, 21.6 ] } },
{ "type": "Feature", "properties": { "ele": 53.1, "time": "2020-08-11T23:35:57Z", "magvar": null, "geoidheight": null, "name": "Os Muiños", "cmt": "Os Muiños", "desc": "Os Muiños", "src": null, "link1_href": null, "link1_text": null, "link1_type": null, "link2_href": null, "link2_text": null, "link2_type": null, "sym": null, "type": null, "fix": null, "sat": null, "hdop": null, "vdop": null, "pdop": null, "ageofdgpsdata": null, "dgpsid": null }, "geometry": { "type": "Point", "coordinates": [ -9.186478, 43.084241, 53.1 ] } },
{ "type": "Feature", "properties": { "ele": 33.5, "time": "2020-08-11T23:35:57Z", "magvar": null, "geoidheight": null, "name": "Fonte da Tella", "cmt": "Fonte da Tella", "desc": "Fonte da Tella", "src": null, "link1_href": null, "link1_text": null, "link1_type": null, "link2_href": null, "link2_text": null, "link2_type": null, "sym": null, "type": null, "fix": null, "sat": null, "hdop": null, "vdop": null, "pdop": null, "ageofdgpsdata": null, "dgpsid": null }, "geometry": { "type": "Point", "coordinates": [ -9.187988, 43.084872, 33.5 ] } },
{ "type": "Feature", "properties": { "ele": 15.1, "time": "2020-08-11T23:35:57Z", "magvar": null, "geoidheight": null, "name": "Ruta dos Muiños", "cmt": "Ruta dos Muiños", "desc": "Ruta dos Muiños", "src": null, "link1_href": null, "link1_text": null, "link1_type": null, "link2_href": null, "link2_text": null, "link2_type": null, "sym": null, "type": null, "fix": null, "sat": null, "hdop": null, "vdop": null, "pdop": null, "ageofdgpsdata": null, "dgpsid": null }, "geometry": { "type": "Point", "coordinates": [ -9.186099, 43.086578, 15.1 ] } },
{ "type": "Feature", "properties": { "ele": 0.3, "time": "2020-08-11T23:35:57Z", "magvar": null, "geoidheight": null, "name": "Praia de Os Muiños", "cmt": "Praia de Os Muiños", "desc": "Praia de Os Muiños", "src": null, "link1_href": null, "link1_text": null, "link1_type": null, "link2_href": null, "link2_text": null, "link2_type": null, "sym": null, "type": null, "fix": null, "sat": null, "hdop": null, "vdop": null, "pdop": null, "ageofdgpsdata": null, "dgpsid": null }, "geometry": { "type": "Point", "coordinates": [ -9.191666, 43.08964, 0.3 ] } },
{ "type": "Feature", "properties": { "ele": 54.3, "time": "2020-08-11T23:35:57Z", "magvar": null, "geoidheight": null, "name": "Monasterio de Moraime", "cmt": "Monasterio de Moraime", "desc": "Monasterio de Moraime", "src": null, "link1_href": null, "link1_text": null, "link1_type": null, "link2_href": null, "link2_text": null, "link2_type": null, "sym": null, "type": null, "fix": null, "sat": null, "hdop": null, "vdop": null, "pdop": null, "ageofdgpsdata": null, "dgpsid": null }, "geometry": { "type": "Point", "coordinates": [ -9.199602, 43.08481, 54.3 ] } },
{ "type": "Feature", "properties": { "ele": 87.8, "time": "2020-08-11T23:35:57Z", "magvar": null, "geoidheight": null, "name": "Chorente", "cmt": "Chorente", "desc": "Chorente", "src": null, "link1_href": null, "link1_text": null, "link1_type": null, "link2_href": null, "link2_text": null, "link2_type": null, "sym": null, "type": null, "fix": null, "sat": null, "hdop": null, "vdop": null, "pdop": null, "ageofdgpsdata": null, "dgpsid": null }, "geometry": { "type": "Point", "coordinates": [ -9.202497, 43.094469, 87.8 ] } },
{ "type": "Feature", "properties": { "ele": 0.9, "time": "2020-08-11T23:35:57Z", "magvar": null, "geoidheight": null, "name": "Praia de Espiñeirido", "cmt": "Praia de Espiñeirido", "desc": "Praia de Espiñeirido", "src": null, "link1_href": null, "link1_text": null, "link1_type": null, "link2_href": null, "link2_text": null, "link2_type": null, "sym": null, "type": null, "fix": null, "sat": null, "hdop": null, "vdop": null, "pdop": null, "ageofdgpsdata": null, "dgpsid": null }, "geometry": { "type": "Point", "coordinates": [ -9.2086, 43.100311, 0.9 ] } },
{ "type": "Feature", "properties": { "ele": 4.9, "time": "2020-08-11T23:35:57Z", "magvar": null, "geoidheight": null, "name": "Praia de A Cruz", "cmt": "Praia de A Cruz", "desc": "Praia de A Cruz", "src": null, "link1_href": null, "link1_text": null, "link1_type": null, "link2_href": null, "link2_text": null, "link2_type": null, "sym": null, "type": null, "fix": null, "sat": null, "hdop": null, "vdop": null, "pdop": null, "ageofdgpsdata": null, "dgpsid": null }, "geometry": { "type": "Point", "coordinates": [ -9.212528, 43.100161, 4.9 ] } },
{ "type": "Feature", "properties": { "ele": 26.7, "time": "2020-08-11T23:35:57Z", "magvar": null, "geoidheight": null, "name": "Igrexa de Santa Maria", "cmt": "Igrexa de Santa Maria", "desc": "Igrexa de Santa Maria", "src": null, "link1_href": null, "link1_text": null, "link1_type": null, "link2_href": null, "link2_text": null, "link2_type": null, "sym": null, "type": null, "fix": null, "sat": null, "hdop": null, "vdop": null, "pdop": null, "ageofdgpsdata": null, "dgpsid": null }, "geometry": { "type": "Point", "coordinates": [ -9.217106, 43.108612, 26.7 ] } },
{ "type": "Feature", "properties": { "ele": 42.3, "time": "2020-08-11T23:35:57Z", "magvar": null, "geoidheight": null, "name": "Monte Corpiño", "cmt": "Monte Corpiño", "desc": "Monte Corpiño", "src": null, "link1_href": null, "link1_text": null, "link1_type": null, "link2_href": null, "link2_text": null, "link2_type": null, "sym": null, "type": null, "fix": null, "sat": null, "hdop": null, "vdop": null, "pdop": null, "ageofdgpsdata": null, "dgpsid": null }, "geometry": { "type": "Point", "coordinates": [ -9.217972, 43.108366, 42.3 ] } },
{ "type": "Feature", "properties": { "ele": 4.9, "time": "2020-08-11T23:35:57Z", "magvar": null, "geoidheight": null, "name": "Faro de Muxia", "cmt": "Faro de Muxia", "desc": "Faro de Muxia", "src": null, "link1_href": null, "link1_text": null, "link1_type": null, "link2_href": null, "link2_text": null, "link2_type": null, "sym": null, "type": null, "fix": null, "sat": null, "hdop": null, "vdop": null, "pdop": null, "ageofdgpsdata": null, "dgpsid": null }, "geometry": { "type": "Point", "coordinates": [ -9.219523, 43.113059, 4.9 ] } },
{ "type": "Feature", "properties": { "ele": 12.8, "time": "2020-08-11T23:35:57Z", "magvar": null, "geoidheight": null, "name": "Santuario Virxe da Barca", "cmt": "Santuario Virxe da Barca", "desc": "Santuario Virxe da Barca", "src": null, "link1_href": null, "link1_text": null, "link1_type": null, "link2_href": null, "link2_text": null, "link2_type": null, "sym": null, "type": null, "fix": null, "sat": null, "hdop": null, "vdop": null, "pdop": null, "ageofdgpsdata": null, "dgpsid": null }, "geometry": { "type": "Point", "coordinates": [ -9.219807, 43.112162, 12.8 ] } },
{ "type": "Feature", "properties": { "ele": 5.6, "time": "2020-08-11T23:35:57Z", "magvar": null, "geoidheight": null, "name": "Pedra de Abalar", "cmt": "Pedra de Abalar", "desc": "Pedra de Abalar", "src": null, "link1_href": null, "link1_text": null, "link1_type": null, "link2_href": null, "link2_text": null, "link2_type": null, "sym": null, "type": null, "fix": null, "sat": null, "hdop": null, "vdop": null, "pdop": null, "ageofdgpsdata": null, "dgpsid": null }, "geometry": { "type": "Point", "coordinates": [ -9.220288, 43.11238, 5.6 ] } },
{ "type": "Feature", "properties": { "ele": 26.8, "time": "2020-08-11T23:35:57Z", "magvar": null, "geoidheight": null, "name": "Monumento aos Voluntarios", "cmt": "Monumento aos Voluntarios", "desc": "Monumento aos Voluntarios", "src": null, "link1_href": null, "link1_text": null, "link1_type": null, "link2_href": null, "link2_text": null, "link2_type": null, "sym": null, "type": null, "fix": null, "sat": null, "hdop": null, "vdop": null, "pdop": null, "ageofdgpsdata": null, "dgpsid": null }, "geometry": { "type": "Point", "coordinates": [ -9.2195, 43.111026, 26.8 ] } },
{ "type": "Feature", "properties": { "ele": 6.1, "time": "2020-08-11T23:35:57Z", "magvar": null, "geoidheight": null, "name": "Secadero de Congrio", "cmt": "Secadero de Congrio", "desc": "Secadero de Congrio", "src": null, "link1_href": null, "link1_text": null, "link1_type": null, "link2_href": null, "link2_text": null, "link2_type": null, "sym": null, "type": null, "fix": null, "sat": null, "hdop": null, "vdop": null, "pdop": null, "ageofdgpsdata": null, "dgpsid": null }, "geometry": { "type": "Point", "coordinates": [ -9.220259, 43.105003, 6.1 ] } },
{ "type": "Feature", "properties": { "ele": 7.6, "time": "2020-08-11T23:35:57Z", "magvar": null, "geoidheight": null, "name": "Praia de O Coido", "cmt": "Praia de O Coido", "desc": "Praia de O Coido", "src": null, "link1_href": null, "link1_text": null, "link1_type": null, "link2_href": null, "link2_text": null, "link2_type": null, "sym": null, "type": null, "fix": null, "sat": null, "hdop": null, "vdop": null, "pdop": null, "ageofdgpsdata": null, "dgpsid": null }, "geometry": { "type": "Point", "coordinates": [ -9.218659, 43.102534, 7.6 ] } },
{ "type": "Feature", "properties": { "ele": 13.8, "time": "2020-08-11T23:35:57Z", "magvar": null, "geoidheight": null, "name": "Fonte de Ariño", "cmt": "Fonte de Ariño", "desc": "Fonte de Ariño", "src": null, "link1_href": null, "link1_text": null, "link1_type": null, "link2_href": null, "link2_text": null, "link2_type": null, "sym": null, "type": null, "fix": null, "sat": null, "hdop": null, "vdop": null, "pdop": null, "ageofdgpsdata": null, "dgpsid": null }, "geometry": { "type": "Point", "coordinates": [ -9.157768, 43.130027, 13.8 ] } },
{ "type": "Feature", "properties": { "ele": 6.0, "time": "2020-08-11T23:35:57Z", "magvar": null, "geoidheight": null, "name": "Parrillada Rojo", "cmt": "Parrillada Rojo", "desc": "Parrillada Rojo", "src": null, "link1_href": null, "link1_text": null, "link1_type": null, "link2_href": null, "link2_text": null, "link2_type": null, "sym": null, "type": null, "fix": null, "sat": null, "hdop": null, "vdop": null, "pdop": null, "ageofdgpsdata": null, "dgpsid": null }, "geometry": { "type": "Point", "coordinates": [ -9.163952, 43.152432, 6.0 ] } },
{ "type": "Feature", "properties": { "ele": 7.7, "time": "2020-08-11T23:35:57Z", "magvar": null, "geoidheight": null, "name": "Café-Bar Ariño", "cmt": "Café-Bar Ariño", "desc": "Café-Bar Ariño", "src": null, "link1_href": null, "link1_text": null, "link1_type": null, "link2_href": null, "link2_text": null, "link2_type": null, "sym": null, "type": null, "fix": null, "sat": null, "hdop": null, "vdop": null, "pdop": null, "ageofdgpsdata": null, "dgpsid": null }, "geometry": { "type": "Point", "coordinates": [ -9.148986, 43.138966, 7.7 ] } },
{ "type": "Feature", "properties": { "ele": 11.8, "time": "2020-08-11T23:35:57Z", "magvar": null, "geoidheight": null, "name": "Pensión La Fe", "cmt": "Pensión La Fe", "desc": "Pensión La Fe", "src": null, "link1_href": null, "link1_text": null, "link1_type": null, "link2_href": null, "link2_text": null, "link2_type": null, "sym": null, "type": null, "fix": null, "sat": null, "hdop": null, "vdop": null, "pdop": null, "ageofdgpsdata": null, "dgpsid": null }, "geometry": { "type": "Point", "coordinates": [ -9.134669, 43.137616, 11.8 ] } },
{ "type": "Feature", "properties": { "ele": 4.7, "time": "2020-08-11T23:35:57Z", "magvar": null, "geoidheight": null, "name": "Bar Cunkcafé", "cmt": "Bar Cunkcafé", "desc": "Bar Cunkcafé", "src": null, "link1_href": null, "link1_text": null, "link1_type": null, "link2_href": null, "link2_text": null, "link2_type": null, "sym": null, "type": null, "fix": null, "sat": null, "hdop": null, "vdop": null, "pdop": null, "ageofdgpsdata": null, "dgpsid": null }, "geometry": { "type": "Point", "coordinates": [ -9.114974, 43.137006, 4.7 ] } },
{ "type": "Feature", "properties": { "ele": 14.2, "time": "2020-08-11T23:35:57Z", "magvar": null, "geoidheight": null, "name": "Camping Restaurante Paraíso", "cmt": "Camping Restaurante Paraíso", "desc": "Camping Restaurante Paraíso", "src": null, "link1_href": null, "link1_text": null, "link1_type": null, "link2_href": null, "link2_text": null, "link2_type": null, "sym": null, "type": null, "fix": null, "sat": null, "hdop": null, "vdop": null, "pdop": null, "ageofdgpsdata": null, "dgpsid": null }, "geometry": { "type": "Point", "coordinates": [ -9.164639, 43.104986, 14.2 ] } },
{ "type": "Feature", "properties": { "ele": 19.1, "time": "2020-08-11T23:35:57Z", "magvar": null, "geoidheight": null, "name": "Hostal Restaurante Playa do Lago", "cmt": "Hostal Restaurante Playa do Lago", "desc": "Hostal Restaurante Playa do Lago", "src": null, "link1_href": null, "link1_text": null, "link1_type": null, "link2_href": null, "link2_text": null, "link2_type": null, "sym": null, "type": null, "fix": null, "sat": null, "hdop": null, "vdop": null, "pdop": null, "ageofdgpsdata": null, "dgpsid": null }, "geometry": { "type": "Point", "coordinates": [ -9.164031, 43.10506, 19.1 ] } },
{ "type": "Feature", "properties": { "ele": 11.6, "time": "2020-08-11T23:35:57Z", "magvar": null, "geoidheight": null, "name": "Pensión Restaurante Arco Iris", "cmt": "Pensión Restaurante Arco Iris", "desc": "Pensión Restaurante Arco Iris", "src": null, "link1_href": null, "link1_text": null, "link1_type": null, "link2_href": null, "link2_text": null, "link2_type": null, "sym": null, "type": null, "fix": null, "sat": null, "hdop": null, "vdop": null, "pdop": null, "ageofdgpsdata": null, "dgpsid": null }, "geometry": { "type": "Point", "coordinates": [ -9.164651, 43.104553, 11.6 ] } },
{ "type": "Feature", "properties": { "ele": 14.1, "time": "2020-08-11T23:35:57Z", "magvar": null, "geoidheight": null, "name": "Albergue Bela Muxía", "cmt": "Albergue Bela Muxía", "desc": "Albergue Bela Muxía", "src": null, "link1_href": null, "link1_text": null, "link1_type": null, "link2_href": null, "link2_text": null, "link2_type": null, "sym": null, "type": null, "fix": null, "sat": null, "hdop": null, "vdop": null, "pdop": null, "ageofdgpsdata": null, "dgpsid": null }, "geometry": { "type": "Point", "coordinates": [ -9.217518, 43.107151, 14.1 ] } },
{ "type": "Feature", "properties": { "ele": 28.0, "time": "2020-08-11T23:35:57Z", "magvar": null, "geoidheight": null, "name": "Restaurante Casa Carmela", "cmt": "Restaurante Casa Carmela", "desc": "Restaurante Casa Carmela", "src": null, "link1_href": null, "link1_text": null, "link1_type": null, "link2_href": null, "link2_text": null, "link2_type": null, "sym": null, "type": null, "fix": null, "sat": null, "hdop": null, "vdop": null, "pdop": null, "ageofdgpsdata": null, "dgpsid": null }, "geometry": { "type": "Point", "coordinates": [ -9.177345, 43.098711, 28.0 ] } },
{ "type": "Feature", "properties": { "ele": 46.6, "time": "2020-08-11T23:35:57Z", "magvar": null, "geoidheight": null, "name": "Café-Bar París", "cmt": "Café-Bar París", "desc": "Café-Bar París", "src": null, "link1_href": null, "link1_text": null, "link1_type": null, "link2_href": null, "link2_text": null, "link2_type": null, "sym": null, "type": null, "fix": null, "sat": null, "hdop": null, "vdop": null, "pdop": null, "ageofdgpsdata": null, "dgpsid": null }, "geometry": { "type": "Point", "coordinates": [ -9.188265, 43.083234, 46.6 ] } },
{ "type": "Feature", "properties": { "ele": 7.2, "time": "2020-08-11T23:35:57Z", "magvar": null, "geoidheight": null, "name": "Bar O Xardín", "cmt": "Bar O Xardín", "desc": "Bar O Xardín", "src": null, "link1_href": null, "link1_text": null, "link1_type": null, "link2_href": null, "link2_text": null, "link2_type": null, "sym": null, "type": null, "fix": null, "sat": null, "hdop": null, "vdop": null, "pdop": null, "ageofdgpsdata": null, "dgpsid": null }, "geometry": { "type": "Point", "coordinates": [ -9.215751, 43.103347, 7.2 ] } }
]
}
