{
"type": "FeatureCollection",
"name": "ruta",
"crs": { "type": "name", "properties": { "name": "urn:ogc:def:crs:OGC:1.3:CRS84" } },
"xy_coordinate_resolution": 1e-07,
"features": [
{ "type": "Feature", "properties": { "name": "O Camiño dos Faros: Etapa 6 (Camariñas-Muxía) - Track oficia...", "peligrosidad_dificultad": "p0-d0" }, "geometry": { "type": "MultiLineString", "coordinates": [ [ [ -9.1861587, 43.0843589, 54.138926232146652 ], [ -9.186721, 43.084242, 51.355 ], [ -9.187144, 43.083917, 48.034 ], [ -9.188201, 43.083892, 44.557 ], [ -9.188724, 43.084235, 40.043 ], [ -9.188532, 43.084611, 35.163 ], [ -9.187977, 43.084792, 34.354 ], [ -9.187947, 43.085188, 31.356 ], [ -9.188031, 43.085516, 28.511 ], [ -9.188734, 43.086319, 34.108 ], [ -9.188712, 43.086505, 33.83 ], [ -9.188469, 43.086817, 28.899 ], [ -9.186806, 43.08635, 17.029 ], [ -9.186047, 43.086441, 15.574 ], [ -9.185987, 43.086654, 16.713 ], [ -9.186779, 43.087431, 16.816 ], [ -9.186954, 43.087391, 17.932 ], [ -9.188015, 43.088216, 21.592 ], [ -9.189385, 43.088009, 26.151 ], [ -9.189672, 43.087597, 33.001 ], [ -9.190302, 43.087687, 26.911 ], [ -9.189979, 43.088283, 17.208 ], [ -9.191118, 43.088386, 3.82 ], [ -9.191823, 43.088286, 3.749 ], [ -9.193478, 43.088653, 3.429 ], [ -9.194795, 43.089925, 14.224 ], [ -9.194727, 43.090355, 9.473 ], [ -9.195053, 43.090965, 16.486 ], [ -9.195172, 43.091686, 18.482 ], [ -9.19537, 43.091639, 23.452 ], [ -9.195501, 43.092785, 26.031 ], [ -9.197716, 43.092419, 69.461 ], [ -9.198847, 43.093645, 72.907 ], [ -9.200639, 43.093809, 84.308 ], [ -9.201525, 43.094033, 86.418 ], [ -9.202348, 43.094708, 85.627 ], [ -9.202827, 43.0947, 87.167 ], [ -9.20345, 43.094997, 83.032 ], [ -9.204068, 43.096023, 77.821 ], [ -9.205702, 43.096548, 79.774 ], [ -9.205816, 43.096731, 77.58 ], [ -9.205175, 43.097495, 64.96 ], [ -9.205254, 43.098335, 54.055 ], [ -9.205128, 43.098946, 46.707 ], [ -9.2052, 43.099221, 42.617 ], [ -9.205753, 43.099584, 30.608 ], [ -9.207782, 43.099397, 12.05 ], [ -9.208286, 43.099738, 4.199 ], [ -9.209293, 43.099686, 4.749 ], [ -9.210074, 43.100004, 6.034 ], [ -9.211537, 43.100049, 9.283 ], [ -9.211981, 43.099743, 12.356 ], [ -9.212534, 43.098893, 8.682 ], [ -9.212923, 43.098937, 5.372 ], [ -9.213446, 43.101322, 8.834 ], [ -9.2139, 43.102399, 4.055 ], [ -9.216033, 43.103907, 7.71 ], [ -9.21687, 43.105304, 7.408 ], [ -9.216713, 43.106061, 6.238 ], [ -9.217178, 43.106292, 9.787 ], [ -9.217228, 43.106661, 12.037 ], [ -9.217177, 43.107558, 13.152 ], [ -9.216817, 43.108091, 14.431 ], [ -9.216831, 43.108548, 18.994 ], [ -9.218199, 43.10864, 50.75 ], [ -9.218592, 43.10949, 49.76 ], [ -9.218619, 43.110372, 41.616 ], [ -9.2187, 43.110736, 36.776 ], [ -9.218975, 43.111043, 33.613 ], [ -9.218914, 43.11122, 32.708 ], [ -9.219493, 43.111374, 24.966 ], [ -9.219378, 43.111205, 28.385 ], [ -9.219489, 43.108456, 32.265 ], [ -9.219237, 43.107941, 30.97 ], [ -9.218785, 43.107626, 25.049 ], [ -9.218637, 43.107006, 19.552 ], [ -9.218722, 43.106465, 18.578 ], [ -9.21893, 43.106414, 19.258 ], [ -9.219053, 43.106123, 17.728 ], [ -9.219106, 43.105204, 13.289 ], [ -9.219743, 43.10511, 10.217 ], [ -9.22006, 43.104744, 7.408 ], [ -9.219396, 43.10391, 5.587 ], [ -9.218994, 43.103928, 7.766 ], [ -9.218695, 43.103746, 8.536 ], [ -9.218579, 43.102866, 5.581 ] ] ] } },
{ "type": "Feature", "properties": { "name": "O Camiño dos Faros: Etapa 6 (Camariñas-Muxía) - Track oficia...", "peligrosidad_dificultad": "p0-d0" }, "geometry": { "type": "MultiLineString", "coordinates": [ [ [ -9.184156, 43.129195, 4.141 ], [ -9.183957, 43.129075, 4.181 ], [ -9.183275, 43.129555, 6.009 ], [ -9.182375, 43.129799, 9.608 ], [ -9.181683, 43.129865, 12.449 ], [ -9.180662, 43.129527, 10.958 ], [ -9.180129, 43.129759, 12.798 ], [ -9.180015, 43.130233, 14.093 ], [ -9.179868, 43.130235, 14.562 ], [ -9.180652, 43.133978, 8.935 ], [ -9.180118, 43.133637, 5.591 ], [ -9.179571, 43.133894, 7.071 ], [ -9.179187, 43.133827, 7.455 ], [ -9.178424, 43.134801, 4.307 ], [ -9.178259, 43.135176, 5.017 ], [ -9.178289, 43.135709, 13.808 ], [ -9.177893, 43.136365, 6.28 ], [ -9.17857, 43.137136, 4.569 ], [ -9.178706, 43.137663, 3.969 ], [ -9.17819, 43.138315, 4.584 ], [ -9.177256, 43.138519, 5.443 ], [ -9.17612, 43.13847, 7.976 ], [ -9.175675, 43.138063, 9.372 ], [ -9.175564, 43.137475, 8.862 ], [ -9.174418, 43.13733, 8.537 ], [ -9.173441, 43.137769, 12.949 ], [ -9.171523, 43.137411, 5.113 ], [ -9.171199, 43.137621, 7.608 ], [ -9.171138, 43.138072, 9.328 ], [ -9.171479, 43.138394, 15.597 ], [ -9.171676, 43.138923, 16.177 ], [ -9.171278, 43.139263, 9.912 ], [ -9.171046, 43.140032, 12.551 ], [ -9.170598, 43.140448, 11.744 ], [ -9.170129, 43.140624, 9.25 ], [ -9.16897, 43.142382, 4.75 ], [ -9.1689967, 43.142473, 4.555065400192036 ] ] ] } },
{ "type": "Feature", "properties": { "name": "O Camiño dos Faros: Etapa 6 (Camariñas-Muxía) - Track oficia...", "peligrosidad_dificultad": "p2-d0" }, "geometry": { "type": "MultiLineString", "coordinates": [ [ [ -9.1689967, 43.142473, 4.555065400192036 ], [ -9.169192, 43.14314, 3.127 ], [ -9.169894, 43.143824, 3.968 ], [ -9.170318, 43.143965, 6.314 ], [ -9.170352, 43.144121, 6.508 ], [ -9.170223, 43.144562, 5.437 ], [ -9.170324, 43.144921, 4.786 ], [ -9.169598, 43.14636, 3.776 ], [ -9.1697, 43.146955, 3.051 ], [ -9.169988, 43.147094, 3.55 ], [ -9.16899, 43.147527, 2.973 ], [ -9.1684688, 43.1486697, 4.681424537631388 ] ] ] } },
{ "type": "Feature", "properties": { "name": "O Camiño dos Faros: Etapa 6 (Camariñas-Muxía) - Track oficia...", "peligrosidad_dificultad": "p0-d0" }, "geometry": { "type": "MultiLineString", "coordinates": [ [ [ -9.1684688, 43.1486697, 4.681424537631388 ], [ -9.168253, 43.149143, 5.389 ], [ -9.168266, 43.149831, 7.299 ], [ -9.167989, 43.150148, 6.713 ], [ -9.1679946, 43.1502406, 6.628838418692413 ] ] ] } },
{ "type": "Feature", "properties": { "name": "O Camiño dos Faros: Etapa 6 (Camariñas-Muxía) - Track oficia...", "peligrosidad_dificultad": "p2-d0" }, "geometry": { "type": "MultiLineString", "coordinates": [ [ [ -9.1679946, 43.1502406, 6.628838418692413 ], [ -9.168007, 43.150445, 6.443 ], [ -9.1664793, 43.1513868, 6.67047906962467 ] ] ] } },
{ "type": "Feature", "properties": { "name": "O Camiño dos Faros: Etapa 6 (Camariñas-Muxía) - Track oficia...", "peligrosidad_dificultad": "p0-d0" }, "geometry": { "type": "MultiLineString", "coordinates": [ [ [ -9.1660841, 43.1524078, 5.884465576156139 ], [ -9.166139, 43.152684, 5.326 ], [ -9.165465, 43.153116, 6.115 ], [ -9.164807, 43.153027, 6.435 ], [ -9.1643445, 43.1526472, 7.315429834019314 ] ] ] } },
{ "type": "Feature", "properties": { "name": "O Camiño dos Faros: Etapa 6 (Camariñas-Muxía) - Track oficia...", "peligrosidad_dificultad": "p0-d0" }, "geometry": { "type": "MultiLineString", "coordinates": [ [ [ -9.1664793, 43.1513868, 6.67047906962467 ], [ -9.166234, 43.151538, 6.707 ], [ -9.166013, 43.15205, 6.608 ], [ -9.1660841, 43.1524078, 5.884465576156139 ] ] ] } },
{ "type": "Feature", "properties": { "name": "O Camiño dos Faros: Etapa 6 (Camariñas-Muxía) - Track oficia...", "peligrosidad_dificultad": "p0-d0" }, "geometry": { "type": "MultiLineString", "coordinates": [ [ [ -9.1430414, 43.1354933, 41.635765935478091 ], [ -9.1423, 43.135914, 34.747 ], [ -9.140944, 43.137086, 34.011 ], [ -9.1402, 43.137001, 32.208 ], [ -9.139731, 43.136402, 27.247 ], [ -9.138263, 43.136943, 24.026 ], [ -9.137499, 43.137524, 23.386 ], [ -9.137071, 43.138046, 24.831 ], [ -9.136617, 43.138979, 32.96 ], [ -9.1362111, 43.1388458, 30.729799749549926 ] ] ] } },
{ "type": "Feature", "properties": { "name": "O Camiño dos Faros: Etapa 6 (Camariñas-Muxía) - Track oficia...", "peligrosidad_dificultad": "p0-d0" }, "geometry": { "type": "MultiLineString", "coordinates": [ [ [ -9.1643445, 43.1526472, 7.315429834019314 ], [ -9.163533, 43.151981, 8.86 ], [ -9.16367, 43.151323, 10.189 ], [ -9.162404, 43.149273, 10.932 ], [ -9.162478, 43.147828, 8.168 ], [ -9.16287, 43.146955, 9.988 ], [ -9.163082, 43.146769, 8.033 ], [ -9.163078, 43.146335, 11.423 ], [ -9.163413, 43.146085, 5.015 ], [ -9.163991, 43.145028, 10.008 ], [ -9.164632, 43.144651, 5.288 ], [ -9.164961, 43.144204, 7.387 ], [ -9.164998, 43.143829, 9.547 ], [ -9.164628, 43.142479, 10.932 ], [ -9.165281, 43.140601, 13.931 ], [ -9.165205, 43.138435, 19.834 ], [ -9.165303, 43.138071, 20.94 ], [ -9.16638, 43.136978, 24.57 ], [ -9.166463, 43.136664, 15.496 ], [ -9.16593, 43.134475, 19.131 ], [ -9.165981, 43.134156, 22.024 ], [ -9.166479, 43.133665, 17.708 ], [ -9.166676, 43.132069, 15.154 ], [ -9.16659, 43.131851, 13.853 ], [ -9.166036, 43.131491, 14.643 ], [ -9.164895, 43.131123, 24.798 ], [ -9.164647, 43.130923, 25.627 ], [ -9.164316, 43.129771, 22.26 ], [ -9.162784, 43.129222, 19.926 ], [ -9.160452, 43.128894, 7.736 ], [ -9.159225, 43.129421, 14.732 ], [ -9.158668, 43.129248, 7.192 ], [ -9.15769, 43.130259, 12.411 ], [ -9.157525, 43.13016, 10.808 ], [ -9.156264, 43.130324, 7.448 ], [ -9.154252, 43.131056, 11.637 ], [ -9.153511, 43.131612, 11.647 ], [ -9.152801, 43.131896, 8.622 ], [ -9.151488, 43.132975, 8.731 ], [ -9.150431, 43.133567, 3.054 ], [ -9.15072, 43.134086, 7.77 ], [ -9.150522, 43.134475, 10.91 ], [ -9.150906, 43.136348, 9.715 ], [ -9.150357, 43.138507, 7.365 ], [ -9.150271, 43.138816, 9.511 ], [ -9.14892, 43.138622, 6.908 ], [ -9.148893, 43.13925, 7.776 ], [ -9.147715, 43.139327, 17.835 ], [ -9.147609, 43.139076, 17.675 ], [ -9.147889, 43.137834, 16.14 ], [ -9.147592, 43.136805, 21.379 ], [ -9.147244, 43.136355, 22.872 ], [ -9.145698, 43.135632, 27.758 ], [ -9.143771, 43.135276, 47.558 ], [ -9.143331, 43.135329, 44.326 ], [ -9.1430414, 43.1354933, 41.635765935478091 ] ] ] } },
{ "type": "Feature", "properties": { "name": "O Camiño dos Faros: Etapa 6 (Camariñas-Muxía) - Track oficia...", "peligrosidad_dificultad": "p0-d0" }, "geometry": { "type": "MultiLineString", "coordinates": [ [ [ -9.1202769, 43.1343942, 3.525888186016024 ], [ -9.121155, 43.133831, 5.275 ], [ -9.1227485, 43.1331177, 8.765088519505731 ] ] ] } },
{ "type": "Feature", "properties": { "name": "O Camiño dos Faros: Etapa 6 (Camariñas-Muxía) - Track oficia...", "peligrosidad_dificultad": "p0-d0" }, "geometry": { "type": "MultiLineString", "coordinates": [ [ [ -9.1362111, 43.1388458, 30.729799749549926 ], [ -9.134712, 43.138354, 22.493 ], [ -9.133827, 43.138377, 26.989 ], [ -9.133, 43.138836, 32.749 ], [ -9.13234, 43.138968, 30.388 ], [ -9.13083, 43.139681, 30.124 ], [ -9.130036, 43.139894, 30.826 ], [ -9.129323, 43.140605, 29.808 ], [ -9.12721, 43.139188, 28.113 ], [ -9.126962, 43.138905, 30.892 ], [ -9.126961, 43.138324, 30.862 ], [ -9.126843, 43.138221, 30.687 ], [ -9.126045, 43.137994, 29.386 ], [ -9.125606, 43.138326, 29.329 ], [ -9.124846, 43.138113, 25.565 ], [ -9.123709, 43.13818, 23.985 ], [ -9.123598, 43.137966, 24.076 ], [ -9.120718, 43.138664, 13.09 ], [ -9.118935, 43.138479, 9.819 ], [ -9.116937, 43.13749, 13.808 ], [ -9.115698, 43.138094, 6.932 ], [ -9.114758, 43.137608, 1.461 ], [ -9.11656, 43.136069, 2.351 ], [ -9.119072, 43.135167, 1.126 ], [ -9.1202769, 43.1343942, 3.525888186016024 ] ] ] } },
{ "type": "Feature", "properties": { "name": "O Camiño dos Faros: Etapa 6 (Camariñas-Muxía) - Track oficia...", "peligrosidad_dificultad": "p2-d0" }, "geometry": { "type": "MultiLineString", "coordinates": [ [ [ -9.1276036, 43.1315393, 12.122815451055537 ], [ -9.127503, 43.13101, 13.895 ], [ -9.127687, 43.130615, 19.218 ], [ -9.1277894, 43.1298582, 28.02318228708203 ] ] ] } },
{ "type": "Feature", "properties": { "name": "O Camiño dos Faros: Etapa 6 (Camariñas-Muxía) - Track oficia...", "peligrosidad_dificultad": "p0-d0" }, "geometry": { "type": "MultiLineString", "coordinates": [ [ [ -9.1227485, 43.1331177, 8.765088519505731 ], [ -9.123905, 43.1326, 11.298 ], [ -9.124769, 43.13238, 6.564 ], [ -9.125631, 43.132954, 4.774 ], [ -9.126208, 43.133027, 4.276 ], [ -9.126254, 43.132738, 6.39 ], [ -9.125684, 43.132215, 8.619 ], [ -9.126711, 43.131856, 8.808 ], [ -9.126855, 43.131865, 9.282 ], [ -9.126835, 43.131998, 9.931 ], [ -9.127134, 43.132007, 10.681 ], [ -9.127659, 43.131831, 11.146 ], [ -9.1276036, 43.1315393, 12.122815451055537 ] ] ] } },
{ "type": "Feature", "properties": { "name": "O Camiño dos Faros: Etapa 6 (Camariñas-Muxía) - Track oficia...", "peligrosidad_dificultad": "p0-d0" }, "geometry": { "type": "MultiLineString", "coordinates": [ [ [ -9.1277894, 43.1298582, 28.02318228708203 ], [ -9.127839, 43.129492, 32.284 ], [ -9.128916, 43.127705, 59.034 ], [ -9.1293377, 43.1276708, 60.921482083518768 ] ] ] } },
{ "type": "Feature", "properties": { "name": "O Camiño dos Faros: Etapa 6 (Camariñas-Muxía) - Track oficia...", "peligrosidad_dificultad": "p0-d0" }, "geometry": { "type": "MultiLineString", "coordinates": [ [ [ -9.1293377, 43.1276708, 60.921482083518768 ], [ -9.132501, 43.127414, 75.081 ], [ -9.132781, 43.127559, 75.861 ], [ -9.1329121, 43.1279363, 71.470545297541918 ] ] ] } },
{ "type": "Feature", "properties": { "name": "O Camiño dos Faros: Etapa 6 (Camariñas-Muxía) - Track oficia...", "peligrosidad_dificultad": "p0-d0" }, "geometry": { "type": "MultiLineString", "coordinates": [ [ [ -9.1329121, 43.1279363, 71.470545297541918 ], [ -9.133075, 43.128405, 66.017 ], [ -9.135323, 43.129652, 52.508 ], [ -9.136897, 43.129651, 38.723 ], [ -9.137862, 43.129462, 28.272 ], [ -9.137936, 43.129598, 26.962 ], [ -9.138775, 43.128615, 16.477 ], [ -9.139638, 43.127107, 30.166 ], [ -9.140658, 43.125931, 30.329 ], [ -9.143536, 43.126126, 0.035 ], [ -9.145046, 43.125869, 16.155 ], [ -9.145383, 43.125774, 16.282 ], [ -9.146018, 43.12494, 18.443 ], [ -9.146915, 43.124781, 13.417 ], [ -9.147194, 43.12494, 14.508 ], [ -9.147388, 43.125369, 13.973 ], [ -9.14793, 43.125891, 16.282 ], [ -9.149327, 43.126619, 13.752 ], [ -9.1503, 43.126875, 3.737 ], [ -9.152528, 43.126168, 4.576 ], [ -9.155256, 43.126146, 9.889 ], [ -9.155625, 43.12625, 9.465 ], [ -9.155933, 43.126086, 13.065 ], [ -9.156559, 43.12609, 6.072 ], [ -9.158052, 43.125503, 3.413 ], [ -9.158449, 43.12496, 6.914 ], [ -9.157874, 43.124013, 21.008 ], [ -9.157553, 43.123863, 29.042 ], [ -9.155785, 43.123692, 48.191 ], [ -9.155593, 43.123482, 50.711 ], [ -9.15555, 43.123084, 52.896 ], [ -9.155841, 43.122454, 58.915 ], [ -9.156197, 43.121923, 62.538 ], [ -9.156968, 43.121234, 65.594 ], [ -9.157118, 43.120758, 64.594 ], [ -9.157478, 43.120537, 63.029 ], [ -9.159388, 43.118563, 62.7 ], [ -9.159338, 43.117038, 64.92 ], [ -9.158905, 43.116283, 69.208 ], [ -9.159198, 43.1163, 64.637 ], [ -9.160125, 43.11698, 50.436 ], [ -9.160576, 43.116977, 46.696 ], [ -9.161277, 43.116407, 37.381 ], [ -9.161744, 43.11647, 31.48 ], [ -9.162193, 43.115236, 25.393 ], [ -9.162564, 43.115514, 14.899 ], [ -9.162779, 43.11523, 13.279 ], [ -9.163211, 43.113858, 11.019 ], [ -9.16309, 43.113557, 15.609 ], [ -9.163182, 43.113283, 19.619 ], [ -9.1636837, 43.1128037, 13.757275450043419 ] ] ] } },
{ "type": "Feature", "properties": { "name": "O Camiño dos Faros: Etapa 6 (Camariñas-Muxía) - Track oficia...", "peligrosidad_dificultad": "p0-d0" }, "geometry": { "type": "MultiLineString", "coordinates": [ [ [ -9.1636837, 43.1128037, 13.757275450043419 ], [ -9.164347, 43.11217, 6.008 ], [ -9.165042, 43.111049, 9.346 ], [ -9.1650726, 43.1107898, 11.610976413926455 ] ] ] } },
{ "type": "Feature", "properties": { "name": "O Camiño dos Faros: Etapa 6 (Camariñas-Muxía) - Track oficia...", "peligrosidad_dificultad": "p0-d0" }, "geometry": { "type": "MultiLineString", "coordinates": [ [ [ -9.1650726, 43.1107898, 11.610976413926455 ], [ -9.165102, 43.110541, 13.785 ], [ -9.165574, 43.110143, 4.385 ], [ -9.165358, 43.109899, 6.18 ], [ -9.164849, 43.108143, 14.359 ], [ -9.164983, 43.10583, 13.452 ], [ -9.164889, 43.104734, 11.448 ], [ -9.164499, 43.10453, 12.198 ], [ -9.164167, 43.103434, 7.799 ], [ -9.16451, 43.103131, 12.607 ], [ -9.167354, 43.104097, 15.727 ], [ -9.168316, 43.103744, 17.108 ], [ -9.170602, 43.103856, 25.144 ], [ -9.171805, 43.102706, 29.623 ], [ -9.171863, 43.102283, 28.813 ], [ -9.172192, 43.101999, 26.028 ], [ -9.1724893, 43.1018909, 26.26226971227333 ] ] ] } },
{ "type": "Feature", "properties": { "name": "O Camiño dos Faros: Etapa 6 (Camariñas-Muxía) - Track oficia...", "peligrosidad_dificultad": "p2-d0" }, "geometry": { "type": "MultiLineString", "coordinates": [ [ [ -9.1724893, 43.1018909, 26.26226971227333 ], [ -9.174589, 43.101127, 27.917 ], [ -9.175663, 43.100378, 28.54 ], [ -9.175692, 43.100135, 30.526 ], [ -9.177547, 43.099491, 21.896 ], [ -9.177648, 43.099242, 22.256 ], [ -9.177416, 43.097312, 38.959 ], [ -9.177632, 43.095874, 37.914 ], [ -9.177549, 43.094823, 39.208 ], [ -9.177831, 43.094504, 38.83 ], [ -9.180771, 43.094043, 36.189 ], [ -9.181335, 43.093709, 29.219 ], [ -9.181405, 43.092793, 31.424 ], [ -9.181656, 43.092143, 31.733 ], [ -9.183339, 43.089971, 41.466 ], [ -9.184387, 43.089031, 52.942 ], [ -9.184705, 43.088531, 59.222 ], [ -9.184747, 43.088029, 60.561 ], [ -9.184182, 43.087126, 57.621 ], [ -9.184064, 43.086122, 55.113 ], [ -9.183785, 43.085401, 65.008 ], [ -9.184177, 43.084904, 60.261 ], [ -9.185068, 43.084319, 58.16 ], [ -9.186009, 43.08439, 54.88 ], [ -9.1861587, 43.0843589, 54.138926232146652 ] ] ] } }
]
}
