{
"type": "FeatureCollection",
"name": "PuntosDeInteres",
"crs": { "type": "name", "properties": { "name": "urn:ogc:def:crs:OGC:1.3:CRS84" } },
"xy_coordinate_resolution": 1e-06,
"features": [
{ "type": "Feature", "properties": { "ele": 8.1, "time": "2020-08-11T23:34:36Z", "magvar": null, "geoidheight": null, "name": "Fonte de Arou", "cmt": "Fonte de Arou", "desc": "Fonte de Arou", "src": null, "link1_href": null, "link1_text": null, "link1_type": null, "link2_href": null, "link2_text": null, "link2_type": null, "sym": null, "type": null, "fix": null, "sat": null, "hdop": null, "vdop": null, "pdop": null, "ageofdgpsdata": null, "dgpsid": null }, "geometry": { "type": "Point", "coordinates": [ -9.111681, 43.185119, 8.1 ] } },
{ "type": "Feature", "properties": { "ele": 0.2, "time": "2020-08-11T23:34:36Z", "magvar": null, "geoidheight": null, "name": "Enseada de Xan Ferreiro", "cmt": "Enseada de Xan Ferreiro", "desc": "Enseada de Xan Ferreiro", "src": null, "link1_href": null, "link1_text": null, "link1_type": null, "link2_href": null, "link2_text": null, "link2_type": null, "sym": null, "type": null, "fix": null, "sat": null, "hdop": null, "vdop": null, "pdop": null, "ageofdgpsdata": null, "dgpsid": null }, "geometry": { "type": "Point", "coordinates": [ -9.11386, 43.18856, 0.2 ] } },
{ "type": "Feature", "properties": { "ele": 31.5, "time": "2020-08-11T23:34:36Z", "magvar": null, "geoidheight": null, "name": "Mirador de Lobeiras", "cmt": "Mirador de Lobeiras", "desc": "Mirador de Lobeiras", "src": null, "link1_href": null, "link1_text": null, "link1_type": null, "link2_href": null, "link2_text": null, "link2_type": null, "sym": null, "type": null, "fix": null, "sat": null, "hdop": null, "vdop": null, "pdop": null, "ageofdgpsdata": null, "dgpsid": null }, "geometry": { "type": "Point", "coordinates": [ -9.115848, 43.192319, 31.5 ] } },
{ "type": "Feature", "properties": { "ele": 1.5, "time": "2020-08-11T23:34:36Z", "magvar": null, "geoidheight": null, "name": "Praia de Lobeiras", "cmt": "Praia de Lobeiras", "desc": "Praia de Lobeiras", "src": null, "link1_href": null, "link1_text": null, "link1_type": null, "link2_href": null, "link2_text": null, "link2_type": null, "sym": null, "type": null, "fix": null, "sat": null, "hdop": null, "vdop": null, "pdop": null, "ageofdgpsdata": null, "dgpsid": null }, "geometry": { "type": "Point", "coordinates": [ -9.11697, 43.194316, 1.5 ] } },
{ "type": "Feature", "properties": { "ele": 2.7, "time": "2020-08-11T23:34:36Z", "magvar": null, "geoidheight": null, "name": "Porto de Santa Mariña", "cmt": "Porto de Santa Mariña", "desc": "Porto de Santa Mariña", "src": null, "link1_href": null, "link1_text": null, "link1_type": null, "link2_href": null, "link2_text": null, "link2_type": null, "sym": null, "type": null, "fix": null, "sat": null, "hdop": null, "vdop": null, "pdop": null, "ageofdgpsdata": null, "dgpsid": null }, "geometry": { "type": "Point", "coordinates": [ -9.134432, 43.193518, 2.7 ] } },
{ "type": "Feature", "properties": { "ele": 81.1, "time": "2020-08-11T23:34:36Z", "magvar": null, "geoidheight": null, "name": "Penal de Veo", "cmt": "Penal de Veo", "desc": "Penal de Veo", "src": null, "link1_href": null, "link1_text": null, "link1_type": null, "link2_href": null, "link2_text": null, "link2_type": null, "sym": null, "type": null, "fix": null, "sat": null, "hdop": null, "vdop": null, "pdop": null, "ageofdgpsdata": null, "dgpsid": null }, "geometry": { "type": "Point", "coordinates": [ -9.147111, 43.19089, 81.1 ] } },
{ "type": "Feature", "properties": { "ele": 135.8, "time": "2020-08-11T23:34:36Z", "magvar": null, "geoidheight": null, "name": "Duna de Monte Branco", "cmt": "Duna de Monte Branco", "desc": "Duna de Monte Branco", "src": null, "link1_href": null, "link1_text": null, "link1_type": null, "link2_href": null, "link2_text": null, "link2_type": null, "sym": null, "type": null, "fix": null, "sat": null, "hdop": null, "vdop": null, "pdop": null, "ageofdgpsdata": null, "dgpsid": null }, "geometry": { "type": "Point", "coordinates": [ -9.144204, 43.188036, 135.8 ] } },
{ "type": "Feature", "properties": { "ele": 3.2, "time": "2020-08-11T23:34:36Z", "magvar": null, "geoidheight": null, "name": "Praia do Trece", "cmt": "Praia do Trece", "desc": "Praia do Trece", "src": null, "link1_href": null, "link1_text": null, "link1_type": null, "link2_href": null, "link2_text": null, "link2_type": null, "sym": null, "type": null, "fix": null, "sat": null, "hdop": null, "vdop": null, "pdop": null, "ageofdgpsdata": null, "dgpsid": null }, "geometry": { "type": "Point", "coordinates": [ -9.153809, 43.184482, 3.2 ] } },
{ "type": "Feature", "properties": { "ele": 9.4, "time": "2020-08-11T23:34:36Z", "magvar": null, "geoidheight": null, "name": "Cementerio dos Ingleses", "cmt": "Cementerio dos Ingleses", "desc": "Cementerio dos Ingleses", "src": null, "link1_href": null, "link1_text": null, "link1_type": null, "link2_href": null, "link2_text": null, "link2_type": null, "sym": null, "type": null, "fix": null, "sat": null, "hdop": null, "vdop": null, "pdop": null, "ageofdgpsdata": null, "dgpsid": null }, "geometry": { "type": "Point", "coordinates": [ -9.170076, 43.185865, 9.4 ] } },
{ "type": "Feature", "properties": { "ele": 0.9, "time": "2020-08-11T23:34:36Z", "magvar": null, "geoidheight": null, "name": "Punta Boi", "cmt": "Punta Boi", "desc": "Punta Boi", "src": null, "link1_href": null, "link1_text": null, "link1_type": null, "link2_href": null, "link2_text": null, "link2_type": null, "sym": null, "type": null, "fix": null, "sat": null, "hdop": null, "vdop": null, "pdop": null, "ageofdgpsdata": null, "dgpsid": null }, "geometry": { "type": "Point", "coordinates": [ -9.174269, 43.189806, 0.9 ] } },
{ "type": "Feature", "properties": { "ele": 0.0, "time": "2020-08-11T23:34:36Z", "magvar": null, "geoidheight": null, "name": "Naufragio Serpent", "cmt": "Naufragio Serpent", "desc": "Naufragio Serpent", "src": null, "link1_href": null, "link1_text": null, "link1_type": null, "link2_href": null, "link2_text": null, "link2_type": null, "sym": null, "type": null, "fix": null, "sat": null, "hdop": null, "vdop": null, "pdop": null, "ageofdgpsdata": null, "dgpsid": null }, "geometry": { "type": "Point", "coordinates": [ -9.175064, 43.191843, 0.0 ] } },
{ "type": "Feature", "properties": { "ele": 4.7, "time": "2020-08-11T23:34:36Z", "magvar": null, "geoidheight": null, "name": "Enseada de Lucin", "cmt": "Enseada de Lucin", "desc": "Enseada de Lucin", "src": null, "link1_href": null, "link1_text": null, "link1_type": null, "link2_href": null, "link2_text": null, "link2_type": null, "sym": null, "type": null, "fix": null, "sat": null, "hdop": null, "vdop": null, "pdop": null, "ageofdgpsdata": null, "dgpsid": null }, "geometry": { "type": "Point", "coordinates": [ -9.174161, 43.18438, 4.7 ] } },
{ "type": "Feature", "properties": { "ele": 3.1, "time": "2020-08-11T23:34:36Z", "magvar": null, "geoidheight": null, "name": "Praia de Reira", "cmt": "Praia de Reira", "desc": "Praia de Reira", "src": null, "link1_href": null, "link1_text": null, "link1_type": null, "link2_href": null, "link2_text": null, "link2_type": null, "sym": null, "type": null, "fix": null, "sat": null, "hdop": null, "vdop": null, "pdop": null, "ageofdgpsdata": null, "dgpsid": null }, "geometry": { "type": "Point", "coordinates": [ -9.180529, 43.166811, 3.1 ] } },
{ "type": "Feature", "properties": { "ele": 5.9, "time": "2020-08-11T23:34:36Z", "magvar": null, "geoidheight": null, "name": "Pedra do Oso", "cmt": "Pedra do Oso", "desc": "Pedra do Oso", "src": null, "link1_href": null, "link1_text": null, "link1_type": null, "link2_href": null, "link2_text": null, "link2_type": null, "sym": null, "type": null, "fix": null, "sat": null, "hdop": null, "vdop": null, "pdop": null, "ageofdgpsdata": null, "dgpsid": null }, "geometry": { "type": "Point", "coordinates": [ -9.18281, 43.166387, 5.9 ] } },
{ "type": "Feature", "properties": { "ele": 2.2, "time": "2020-08-11T23:34:36Z", "magvar": null, "geoidheight": null, "name": "Praia de Area Longa", "cmt": "Praia de Area Longa", "desc": "Praia de Area Longa", "src": null, "link1_href": null, "link1_text": null, "link1_type": null, "link2_href": null, "link2_text": null, "link2_type": null, "sym": null, "type": null, "fix": null, "sat": null, "hdop": null, "vdop": null, "pdop": null, "ageofdgpsdata": null, "dgpsid": null }, "geometry": { "type": "Point", "coordinates": [ -9.183933, 43.163862, 2.2 ] } },
{ "type": "Feature", "properties": { "ele": 6.8, "time": "2020-08-11T23:34:36Z", "magvar": null, "geoidheight": null, "name": "Praia de Balea", "cmt": "Praia de Balea", "desc": "Praia de Balea", "src": null, "link1_href": null, "link1_text": null, "link1_type": null, "link2_href": null, "link2_text": null, "link2_type": null, "sym": null, "type": null, "fix": null, "sat": null, "hdop": null, "vdop": null, "pdop": null, "ageofdgpsdata": null, "dgpsid": null }, "geometry": { "type": "Point", "coordinates": [ -9.187042, 43.1605, 6.8 ] } },
{ "type": "Feature", "properties": { "ele": 8.8, "time": "2020-08-11T23:34:36Z", "magvar": null, "geoidheight": null, "name": "Praia da Pedrosa", "cmt": "Praia da Pedrosa", "desc": "Praia da Pedrosa", "src": null, "link1_href": null, "link1_text": null, "link1_type": null, "link2_href": null, "link2_text": null, "link2_type": null, "sym": null, "type": null, "fix": null, "sat": null, "hdop": null, "vdop": null, "pdop": null, "ageofdgpsdata": null, "dgpsid": null }, "geometry": { "type": "Point", "coordinates": [ -9.190482, 43.159885, 8.8 ] } },
{ "type": "Feature", "properties": { "ele": 83.2, "time": "2020-08-11T23:34:36Z", "magvar": null, "geoidheight": null, "name": "Monte da Pedrosa", "cmt": "Monte da Pedrosa", "desc": "Monte da Pedrosa", "src": null, "link1_href": null, "link1_text": null, "link1_type": null, "link2_href": null, "link2_text": null, "link2_type": null, "sym": null, "type": null, "fix": null, "sat": null, "hdop": null, "vdop": null, "pdop": null, "ageofdgpsdata": null, "dgpsid": null }, "geometry": { "type": "Point", "coordinates": [ -9.193412, 43.157717, 83.2 ] } },
{ "type": "Feature", "properties": { "ele": 48.0, "time": "2020-08-11T23:34:36Z", "magvar": null, "geoidheight": null, "name": "Faro Vilán", "cmt": "Faro Vilán", "desc": "Faro Vilán", "src": null, "link1_href": null, "link1_text": null, "link1_type": null, "link2_href": null, "link2_text": null, "link2_type": null, "sym": null, "type": null, "fix": null, "sat": null, "hdop": null, "vdop": null, "pdop": null, "ageofdgpsdata": null, "dgpsid": null }, "geometry": { "type": "Point", "coordinates": [ -9.210981, 43.159679, 48.0 ] } },
{ "type": "Feature", "properties": { "ele": 3.2, "time": "2020-08-11T23:34:36Z", "magvar": null, "geoidheight": null, "name": "Punta Esperillo", "cmt": "Punta Esperillo", "desc": "Punta Esperillo", "src": null, "link1_href": null, "link1_text": null, "link1_type": null, "link2_href": null, "link2_text": null, "link2_type": null, "sym": null, "type": null, "fix": null, "sat": null, "hdop": null, "vdop": null, "pdop": null, "ageofdgpsdata": null, "dgpsid": null }, "geometry": { "type": "Point", "coordinates": [ -9.213282, 43.156393, 3.2 ] } },
{ "type": "Feature", "properties": { "ele": 25.8, "time": "2020-08-11T23:34:36Z", "magvar": null, "geoidheight": null, "name": "Fonte Bieita", "cmt": "Fonte Bieita", "desc": "Fonte Bieita", "src": null, "link1_href": null, "link1_text": null, "link1_type": null, "link2_href": null, "link2_text": null, "link2_type": null, "sym": null, "type": null, "fix": null, "sat": null, "hdop": null, "vdop": null, "pdop": null, "ageofdgpsdata": null, "dgpsid": null }, "geometry": { "type": "Point", "coordinates": [ -9.210249, 43.151081, 25.8 ] } },
{ "type": "Feature", "properties": { "ele": 1.9, "time": "2020-08-11T23:34:36Z", "magvar": null, "geoidheight": null, "name": "A Coenda", "cmt": "A Coenda", "desc": "A Coenda", "src": null, "link1_href": null, "link1_text": null, "link1_type": null, "link2_href": null, "link2_text": null, "link2_type": null, "sym": null, "type": null, "fix": null, "sat": null, "hdop": null, "vdop": null, "pdop": null, "ageofdgpsdata": null, "dgpsid": null }, "geometry": { "type": "Point", "coordinates": [ -9.203739, 43.139277, 1.9 ] } },
{ "type": "Feature", "properties": { "ele": 49.6, "time": "2020-08-11T23:34:36Z", "magvar": null, "geoidheight": null, "name": "Monte Farelo", "cmt": "Monte Farelo", "desc": "Monte Farelo", "src": null, "link1_href": null, "link1_text": null, "link1_type": null, "link2_href": null, "link2_text": null, "link2_type": null, "sym": null, "type": null, "fix": null, "sat": null, "hdop": null, "vdop": null, "pdop": null, "ageofdgpsdata": null, "dgpsid": null }, "geometry": { "type": "Point", "coordinates": [ -9.203213, 43.131144, 49.6 ] } },
{ "type": "Feature", "properties": { "ele": 53.1, "time": "2020-08-11T23:34:36Z", "magvar": null, "geoidheight": null, "name": "Ermita da Virxe do Monte", "cmt": "Ermita da Virxe do Monte", "desc": "Ermita da Virxe do Monte", "src": null, "link1_href": null, "link1_text": null, "link1_type": null, "link2_href": null, "link2_text": null, "link2_type": null, "sym": null, "type": null, "fix": null, "sat": null, "hdop": null, "vdop": null, "pdop": null, "ageofdgpsdata": null, "dgpsid": null }, "geometry": { "type": "Point", "coordinates": [ -9.203975, 43.131431, 53.1 ] } },
{ "type": "Feature", "properties": { "ele": 10.4, "time": "2020-08-11T23:34:36Z", "magvar": null, "geoidheight": null, "name": "Castelo do Soberano", "cmt": "Castelo do Soberano", "desc": "Castelo do Soberano", "src": null, "link1_href": null, "link1_text": null, "link1_type": null, "link2_href": null, "link2_text": null, "link2_type": null, "sym": null, "type": null, "fix": null, "sat": null, "hdop": null, "vdop": null, "pdop": null, "ageofdgpsdata": null, "dgpsid": null }, "geometry": { "type": "Point", "coordinates": [ -9.184962, 43.123683, 10.4 ] } },
{ "type": "Feature", "properties": { "ele": 4.2, "time": "2020-08-11T23:34:36Z", "magvar": null, "geoidheight": null, "name": "Porto pesqueiro de Camariñas", "cmt": "Porto pesqueiro de Camariñas", "desc": "Porto pesqueiro de Camariñas", "src": null, "link1_href": null, "link1_text": null, "link1_type": null, "link2_href": null, "link2_text": null, "link2_type": null, "sym": null, "type": null, "fix": null, "sat": null, "hdop": null, "vdop": null, "pdop": null, "ageofdgpsdata": null, "dgpsid": null }, "geometry": { "type": "Point", "coordinates": [ -9.184173, 43.129117, 4.2 ] } },
{ "type": "Feature", "properties": { "ele": 18.1, "time": "2020-08-11T23:34:36Z", "magvar": null, "geoidheight": null, "name": "Restaurante O Meu Lar", "cmt": "Restaurante O Meu Lar", "desc": "Restaurante O Meu Lar", "src": null, "link1_href": null, "link1_text": null, "link1_type": null, "link2_href": null, "link2_text": null, "link2_type": null, "sym": null, "type": null, "fix": null, "sat": null, "hdop": null, "vdop": null, "pdop": null, "ageofdgpsdata": null, "dgpsid": null }, "geometry": { "type": "Point", "coordinates": [ -9.181996, 43.132673, 18.1 ] } },
{ "type": "Feature", "properties": { "ele": 16.5, "time": "2020-08-11T23:34:36Z", "magvar": null, "geoidheight": null, "name": "Hotel O Parranda", "cmt": "Hotel O Parranda", "desc": "Hotel O Parranda", "src": null, "link1_href": null, "link1_text": null, "link1_type": null, "link2_href": null, "link2_text": null, "link2_type": null, "sym": null, "type": null, "fix": null, "sat": null, "hdop": null, "vdop": null, "pdop": null, "ageofdgpsdata": null, "dgpsid": null }, "geometry": { "type": "Point", "coordinates": [ -9.181097, 43.130136, 16.5 ] } },
{ "type": "Feature", "properties": { "ele": 5.9, "time": "2020-08-11T23:34:36Z", "magvar": null, "geoidheight": null, "name": "Bar O Curbeiro", "cmt": "Bar O Curbeiro", "desc": "Bar O Curbeiro", "src": null, "link1_href": null, "link1_text": null, "link1_type": null, "link2_href": null, "link2_text": null, "link2_type": null, "sym": null, "type": null, "fix": null, "sat": null, "hdop": null, "vdop": null, "pdop": null, "ageofdgpsdata": null, "dgpsid": null }, "geometry": { "type": "Point", "coordinates": [ -9.184423, 43.12935, 5.9 ] } },
{ "type": "Feature", "properties": { "ele": 7.0, "time": "2020-08-11T23:34:36Z", "magvar": null, "geoidheight": null, "name": "Cafetería San Remo", "cmt": "Cafetería San Remo", "desc": "Cafetería San Remo", "src": null, "link1_href": null, "link1_text": null, "link1_type": null, "link2_href": null, "link2_text": null, "link2_type": null, "sym": null, "type": null, "fix": null, "sat": null, "hdop": null, "vdop": null, "pdop": null, "ageofdgpsdata": null, "dgpsid": null }, "geometry": { "type": "Point", "coordinates": [ -9.183432, 43.129772, 7.0 ] } },
{ "type": "Feature", "properties": { "ele": 23.5, "time": "2020-08-11T23:34:36Z", "magvar": null, "geoidheight": null, "name": "Hostal Stella Mare", "cmt": "Hostal Stella Mare", "desc": "Hostal Stella Mare", "src": null, "link1_href": null, "link1_text": null, "link1_type": null, "link2_href": null, "link2_text": null, "link2_type": null, "sym": null, "type": null, "fix": null, "sat": null, "hdop": null, "vdop": null, "pdop": null, "ageofdgpsdata": null, "dgpsid": null }, "geometry": { "type": "Point", "coordinates": [ -9.184037, 43.134744, 23.5 ] } }
]
}
