{
"type": "FeatureCollection",
"name": "ruta",
"crs": { "type": "name", "properties": { "name": "urn:ogc:def:crs:OGC:1.3:CRS84" } },
"xy_coordinate_resolution": 1e-07,
"features": [
{ "type": "Feature", "properties": { "name": "O Camiño dos Faros: Etapa 5 (Arou-Camariñas) - Track oficial...", "peligrosidad_dificultad": "p0-d0" }, "geometry": { "type": "MultiLineString", "coordinates": [ [ [ -9.1625732, 43.1825737, 6.653589606269481 ], [ -9.162655, 43.182598, 6.586 ], [ -9.163551, 43.183074, 8.325 ], [ -9.165036, 43.182869, 6.198 ], [ -9.165234, 43.182658, 8.577 ], [ -9.165758, 43.182503, 8.085 ], [ -9.16741, 43.183483, 12.935 ], [ -9.167549, 43.183442, 15.486 ], [ -9.168729, 43.184375, 11.314 ], [ -9.169474, 43.185173, 7.708 ], [ -9.169634, 43.185475, 5.728 ], [ -9.169605, 43.185893, 4.537 ], [ -9.169913, 43.185895, 7.817 ], [ -9.170867, 43.186635, 8.282 ], [ -9.172055, 43.187056, 4.641 ], [ -9.173003, 43.185981, 5.754 ], [ -9.173034, 43.185779, 7.593 ], [ -9.173542, 43.185339, 7.131 ], [ -9.173477, 43.184524, 9.088 ], [ -9.173691, 43.184307, 8.124 ], [ -9.174453, 43.18403, 9.526 ], [ -9.175832, 43.184143, 9.208 ], [ -9.17654, 43.183732, 9.593 ], [ -9.176961, 43.183311, 6.912 ], [ -9.177147, 43.182686, 7.472 ], [ -9.177266, 43.181676, 8.567 ], [ -9.177076, 43.180015, 14.136 ], [ -9.178288, 43.178627, 9.799 ], [ -9.178606, 43.177637, 6.138 ], [ -9.17767, 43.175218, 12.246 ], [ -9.177753, 43.173862, 11.325 ], [ -9.178051, 43.173303, 8.026 ], [ -9.178089, 43.168931, 12.308 ], [ -9.178856, 43.16815, 11.308 ], [ -9.179115, 43.16756, 14.537 ], [ -9.179383, 43.16757, 10.326 ], [ -9.179665, 43.167035, 9.016 ], [ -9.181348, 43.166522, 5.651 ], [ -9.182158, 43.166649, 3.49 ], [ -9.182752, 43.166494, 5.223 ], [ -9.182936, 43.166003, 5.042 ], [ -9.182793, 43.165176, 7.36 ], [ -9.182573, 43.164909, 9.081 ], [ -9.182988, 43.164025, 7.161 ], [ -9.184929, 43.162319, 11.217 ], [ -9.185556, 43.162166, 8.808 ], [ -9.185871, 43.161888, 9.043 ], [ -9.186247, 43.161154, 9.252 ], [ -9.186261, 43.160697, 11.652 ], [ -9.186905, 43.159985, 9.277 ], [ -9.187008, 43.159543, 9.916 ], [ -9.187213, 43.159521, 10.249 ], [ -9.187896, 43.160001, 9.098 ], [ -9.18821, 43.15985, 10.136 ], [ -9.188237, 43.1594, 14.641 ], [ -9.188824, 43.158555, 21.981 ], [ -9.188918, 43.157863, 28.009 ], [ -9.188798, 43.157497, 33.308 ], [ -9.188198, 43.156823, 36.459 ], [ -9.188135, 43.15653, 37.888 ], [ -9.189067, 43.155467, 44.018 ], [ -9.190344, 43.15506, 52.943 ], [ -9.190844, 43.155445, 54.172 ], [ -9.191149, 43.156073, 52.045 ], [ -9.191943, 43.156435, 57.074 ], [ -9.192696, 43.156312, 68.332 ], [ -9.193227, 43.155814, 72.328 ], [ -9.194195, 43.155325, 69.889 ], [ -9.19579, 43.155679, 63.817 ], [ -9.196539, 43.155573, 63.008 ], [ -9.197642, 43.154742, 56.557 ], [ -9.198647, 43.153189, 43.996 ], [ -9.198719, 43.152854, 44.936 ], [ -9.198584, 43.152602, 46.261 ], [ -9.199072, 43.152578, 47.17 ], [ -9.199401, 43.152767, 46.813 ], [ -9.200085, 43.15371, 43.982 ], [ -9.202088, 43.154537, 40.99 ], [ -9.202576, 43.154588, 41.625 ], [ -9.203109, 43.154255, 47.526 ], [ -9.203802, 43.154266, 49.708 ], [ -9.204664, 43.154762, 40.708 ], [ -9.205621, 43.155029, 40.267 ], [ -9.20644, 43.154848, 41.246 ], [ -9.207347, 43.154407, 37.886 ], [ -9.207881, 43.154428, 33.871 ], [ -9.208143, 43.154694, 28.85 ], [ -9.208235, 43.155074, 23.043 ], [ -9.208804, 43.155243, 15.782 ], [ -9.209614, 43.155885, 14.48 ], [ -9.20869, 43.156872, 16.922 ], [ -9.208647, 43.157121, 18.862 ], [ -9.208943, 43.157333, 26.508 ], [ -9.209268, 43.157344, 30.208 ], [ -9.209294, 43.157626, 33.387 ], [ -9.209958, 43.158385, 45.376 ], [ -9.210098, 43.159162, 47.636 ], [ -9.210294, 43.159466, 44.691 ], [ -9.210657, 43.159706, 46.67 ], [ -9.210916, 43.159578, 49.733 ], [ -9.210913, 43.158806, 51.632 ], [ -9.210785, 43.158572, 51.25 ], [ -9.21107, 43.158414, 38.939 ], [ -9.210215, 43.157677, 40.801 ], [ -9.210364, 43.157096, 33.821 ], [ -9.21022, 43.156358, 19.608 ], [ -9.210305, 43.156248, 18.938 ], [ -9.212003, 43.156191, 12.247 ], [ -9.212465, 43.156497, 6.387 ], [ -9.212987, 43.156305, 5.172 ], [ -9.21287, 43.155937, 7.851 ], [ -9.212558, 43.155776, 10.644 ], [ -9.212841, 43.155005, 7.663 ], [ -9.212505, 43.15459, 8.581 ], [ -9.2124, 43.153202, 8.016 ], [ -9.212871, 43.152912, 5.776 ], [ -9.213612, 43.151226, 5.013 ], [ -9.212008, 43.150284, 6.808 ], [ -9.211422, 43.149329, 11.356 ], [ -9.211306, 43.148616, 6.725 ], [ -9.2105, 43.1485, 7.475 ], [ -9.209666, 43.147573, 5.14 ], [ -9.208878, 43.147104, 6.799 ], [ -9.207695, 43.145828, 10.692 ], [ -9.20699, 43.145497, 17.591 ], [ -9.205949, 43.144105, 18.789 ], [ -9.204515, 43.143479, 22.422 ], [ -9.204077, 43.142967, 21.762 ], [ -9.204036, 43.142628, 18.208 ], [ -9.203613, 43.141874, 18.508 ], [ -9.204097, 43.141485, 8.177 ], [ -9.203756, 43.140587, 8.746 ], [ -9.202963, 43.13957, 13.016 ], [ -9.203323, 43.138658, 6.931 ], [ -9.202879, 43.137827, 13.62 ], [ -9.202807, 43.136568, 21.853 ], [ -9.203002, 43.13551, 21.122 ], [ -9.202697, 43.135083, 25.11 ], [ -9.201994, 43.134541, 32.888 ], [ -9.202099, 43.134278, 30.524 ], [ -9.201993, 43.133896, 27.926 ], [ -9.201688, 43.133668, 27.408 ], [ -9.202302, 43.1334, 28.183 ], [ -9.202555, 43.132948, 35.172 ], [ -9.202887, 43.132887, 36.492 ], [ -9.202997, 43.132144, 49.897 ], [ -9.203247, 43.131681, 53.166 ], [ -9.203815, 43.131444, 54.819 ], [ -9.204255, 43.131532, 46.458 ], [ -9.204506, 43.13127, 35.436 ], [ -9.204529, 43.130855, 29.996 ], [ -9.20429, 43.130297, 21.731 ], [ -9.20348, 43.12981, 14.624 ], [ -9.203154, 43.129383, 8.108 ], [ -9.201776, 43.128812, 2.914 ], [ -9.201143, 43.129521, 4.543 ], [ -9.200848, 43.130993, 15.483 ], [ -9.20062, 43.131554, 13.778 ], [ -9.200425, 43.1317, 11.457 ], [ -9.198119, 43.131908, 1.91 ], [ -9.197838, 43.131826, 2.499 ], [ -9.196326, 43.132346, 4.157 ], [ -9.195299, 43.131388, 16.729 ], [ -9.195353, 43.130467, 18.1 ], [ -9.195097, 43.129929, 21.82 ], [ -9.195184, 43.129348, 20.208 ], [ -9.194742, 43.128693, 21.997 ], [ -9.19406, 43.12857, 28.886 ], [ -9.194609, 43.128387, 22.816 ], [ -9.195006, 43.127464, 21.721 ], [ -9.19405, 43.125692, 15.25 ], [ -9.193365, 43.125016, 16.083 ], [ -9.191762, 43.124633, 10.572 ], [ -9.191554, 43.124954, 11.04 ], [ -9.191825, 43.125216, 14.137 ], [ -9.19068, 43.125964, 20.449 ], [ -9.189278, 43.125577, 18.513 ], [ -9.187987, 43.125035, 21.308 ], [ -9.187291, 43.124443, 20.228 ], [ -9.185451, 43.123989, 15.757 ], [ -9.184231, 43.124102, 10.857 ], [ -9.184168, 43.124292, 13.392 ], [ -9.184248, 43.124405, 16.731 ], [ -9.183886, 43.126529, 12.544 ], [ -9.184109, 43.127284, 7.753 ], [ -9.184822, 43.128413, 7.961 ], [ -9.183974, 43.129048, 4.112 ], [ -9.184156, 43.129195, 4.132 ] ] ] } },
{ "type": "Feature", "properties": { "name": "O Camiño dos Faros: Etapa 5 (Arou-Camariñas) - Track oficial...", "peligrosidad_dificultad": "p0-d0" }, "geometry": { "type": "MultiLineString", "coordinates": [ [ [ -9.105541, 43.18476, 4.987 ], [ -9.106273, 43.184603, 7.342 ], [ -9.107715, 43.185206, 5.826 ], [ -9.108642, 43.185059, 11.708 ], [ -9.11006, 43.185208, 6.543 ], [ -9.111416, 43.185022, 9.712 ], [ -9.112131, 43.185363, 6.492 ], [ -9.112889, 43.186046, 5.497 ], [ -9.112743, 43.186689, 6.036 ], [ -9.112847, 43.187021, 6.949 ], [ -9.113374, 43.187335, 4.778 ], [ -9.114681, 43.187722, 6.156 ], [ -9.114693, 43.188783, 3.168 ], [ -9.114931, 43.189194, 3.842 ], [ -9.11439, 43.190045, 0.026 ], [ -9.113835, 43.190186, 0.008 ], [ -9.113658, 43.190424, 0.081 ], [ -9.113998, 43.1909, 0.07 ], [ -9.113982, 43.191444, 0.02 ], [ -9.114375, 43.191701, 0.085 ], [ -9.114889, 43.192479, 12.814 ], [ -9.115213, 43.192642, 21.287 ], [ -9.115411, 43.192532, 24.876 ], [ -9.115736, 43.192644, 27.634 ], [ -9.116007, 43.193127, 18.223 ], [ -9.115635, 43.193379, 12.283 ], [ -9.115862, 43.193797, 5.911 ], [ -9.1177824, 43.1940341, 5.184275002851278 ] ] ] } },
{ "type": "Feature", "properties": { "name": "O Camiño dos Faros: Etapa 5 (Arou-Camariñas) - Track oficial...", "peligrosidad_dificultad": "p2-d2" }, "geometry": { "type": "MultiLineString", "coordinates": [ [ [ -9.1177824, 43.1940341, 5.184275002851278 ], [ -9.117984, 43.194059, 5.108 ], [ -9.119016, 43.19452, 0.057 ], [ -9.119227, 43.194455, 0.086 ], [ -9.119126, 43.194193, 0.076 ], [ -9.119251, 43.193907, 6.591 ], [ -9.120847, 43.193724, 13.23 ], [ -9.121358, 43.194082, 3.443 ], [ -9.122505, 43.194316, 4.352 ], [ -9.123093, 43.194617, 9.83 ], [ -9.12316, 43.194898, 3.565 ], [ -9.123683, 43.195213, 3.868 ], [ -9.124728, 43.195288, 16.614 ], [ -9.124885, 43.194998, 22.308 ], [ -9.125499, 43.194527, 14.591 ], [ -9.125923, 43.194583, 9.05 ], [ -9.126489, 43.194116, 20.78 ], [ -9.127036, 43.194225, 11.695 ], [ -9.127078, 43.193979, 13.464 ], [ -9.127395, 43.193994, 9.887 ], [ -9.127912, 43.194205, 9.746 ], [ -9.128367, 43.194706, 6.144 ], [ -9.128928, 43.194993, 16.957 ], [ -9.129383, 43.195863, 10.5 ], [ -9.129935, 43.196017, 10.02 ], [ -9.130615, 43.195457, 7.308 ], [ -9.130878, 43.194705, 7.57 ], [ -9.131491, 43.193975, 4.019 ], [ -9.131505, 43.193419, 7.179 ], [ -9.1315362, 43.1933833, 6.949896657490673 ] ] ] } },
{ "type": "Feature", "properties": { "name": "O Camiño dos Faros: Etapa 5 (Arou-Camariñas) - Track oficial...", "peligrosidad_dificultad": "p0-d0" }, "geometry": { "type": "MultiLineString", "coordinates": [ [ [ -9.1315362, 43.1933833, 6.949896657490673 ], [ -9.13168, 43.193219, 5.894 ], [ -9.132698, 43.192761, 4.833 ], [ -9.133487, 43.193199, 3.096 ], [ -9.133723, 43.193125, 3.465 ], [ -9.133169, 43.192259, 5.753 ], [ -9.1332437, 43.1922347, 5.595537868920152 ] ] ] } },
{ "type": "Feature", "properties": { "name": "O Camiño dos Faros: Etapa 5 (Arou-Camariñas) - Track oficial...", "peligrosidad_dificultad": "p1-d2" }, "geometry": { "type": "MultiLineString", "coordinates": [ [ [ -9.1332437, 43.1922347, 5.595537868920152 ], [ -9.133866, 43.192032, 4.284 ], [ -9.134025, 43.191367, 6.607 ], [ -9.134346, 43.191037, 6.017 ], [ -9.1351711, 43.1905667, 5.858216540365592 ] ] ] } },
{ "type": "Feature", "properties": { "name": "O Camiño dos Faros: Etapa 5 (Arou-Camariñas) - Track oficial...", "peligrosidad_dificultad": "p0-d0" }, "geometry": { "type": "MultiLineString", "coordinates": [ [ [ -9.1351711, 43.1905667, 5.858216540365592 ], [ -9.135432, 43.190418, 5.808 ], [ -9.138198, 43.190897, 6.653 ], [ -9.139331, 43.19084, 8.052 ], [ -9.140213, 43.190979, 8.042 ], [ -9.141403, 43.190865, 10.317 ], [ -9.14233, 43.191049, 11.256 ], [ -9.142811, 43.191317, 10.879 ], [ -9.143381, 43.191141, 18.718 ], [ -9.144195, 43.191497, 17.966 ], [ -9.146361, 43.192022, 31.363 ], [ -9.147686, 43.192792, 19.044 ], [ -9.148453, 43.192762, 25.918 ], [ -9.148931, 43.192531, 22.408 ], [ -9.149116, 43.192197, 19.431 ], [ -9.149042, 43.191575, 18.61 ], [ -9.14926, 43.190851, 11.27 ], [ -9.148994, 43.189533, 10.355 ], [ -9.149095, 43.188246, 13.474 ], [ -9.148655, 43.187425, 15.877 ], [ -9.1487209, 43.1872306, 14.722467609547973 ] ] ] } },
{ "type": "Feature", "properties": { "name": "O Camiño dos Faros: Etapa 5 (Arou-Camariñas) - Track oficial...", "peligrosidad_dificultad": "p0-d0" }, "geometry": { "type": "MultiLineString", "coordinates": [ [ [ -9.1487209, 43.1872306, 14.722467609547973 ], [ -9.148897, 43.186711, 11.636 ], [ -9.149074, 43.18636, 12.264 ], [ -9.149453, 43.186264, 9.875 ], [ -9.1497, 43.185932, 11.728 ], [ -9.150313, 43.185716, 8.62 ], [ -9.152529, 43.184265, 5.808 ], [ -9.156442, 43.18324, 2.762 ], [ -9.160495, 43.182477, 5.331 ], [ -9.161874, 43.182366, 7.231 ], [ -9.1625732, 43.1825737, 6.653589606269481 ] ] ] } }
]
}
