{
"type": "FeatureCollection",
"name": "atajos",
"crs": { "type": "name", "properties": { "name": "urn:ogc:def:crs:OGC:1.3:CRS84" } },
"xy_coordinate_resolution": 1e-07,
"features": [
{ "type": "Feature", "properties": { "name": "playita", "cmt": "playita", "peligrosidad_dificultad": "p0-d0" }, "geometry": { "type": "MultiLineString", "coordinates": [ [ [ -9.2671042, 43.012237, 0.0 ], [ -9.267678, 43.0116746, 0.0 ], [ -9.2667868, 43.0117728, 0.0 ], [ -9.2655537, 43.0115853, 0.0 ], [ -9.26393, 43.0108176, 0.0 ], [ -9.2630021, 43.0102373, 0.0 ], [ -9.2621598, 43.0109068, 0.0 ] ] ] } },
{ "type": "Feature", "properties": { "name": null, "cmt": null, "peligrosidad_dificultad": "p2-d0" }, "geometry": { "type": "MultiLineString", "coordinates": [ [ [ -9.2585516, 43.0004923, 0.0 ], [ -9.2592052, 43.000369, 0.0 ], [ -9.2598166, 43.0005386, 0.0 ], [ -9.2601328, 43.0001223, 0.0 ], [ -9.2599852, 42.9989042, 0.0 ], [ -9.2585938, 42.9981333, 0.0 ], [ -9.2569072, 42.9973469, 0.0 ] ] ] } },
{ "type": "Feature", "properties": { "name": null, "cmt": null, "peligrosidad_dificultad": "p0-d0" }, "geometry": { "type": "MultiLineString", "coordinates": [ [ [ -9.2579832, 42.9838662, 0.0 ], [ -9.2580529, 42.98288, 0.0 ], [ -9.2583783, 42.9819787, 0.0 ], [ -9.2588432, 42.9817066, 0.0 ], [ -9.2585875, 42.9814515, 0.0 ], [ -9.2586573, 42.9810944, 0.0 ], [ -9.2597963, 42.9808223, 0.0 ], [ -9.2601682, 42.9802611, 0.0 ] ] ] } },
{ "type": "Feature", "properties": { "name": null, "cmt": null, "peligrosidad_dificultad": "p0-d0" }, "geometry": { "type": "MultiLineString", "coordinates": [ [ [ -9.2576087, 42.9731554, 0.0 ], [ -9.2600858, 42.9718811, 0.0 ], [ -9.2620598, 42.9701535, 0.0 ] ] ] } },
{ "type": "Feature", "properties": { "name": null, "cmt": null, "peligrosidad_dificultad": "p0-d0" }, "geometry": { "type": "MultiLineString", "coordinates": [ [ [ -9.2710233, 42.9615769, 0.0 ], [ -9.272371, 42.9609643, 0.0 ], [ -9.272371, 42.9609643, 0.0 ], [ -9.2725467, 42.9600332, 0.0 ], [ -9.272915, 42.9598311, 0.0 ] ] ] } },
{ "type": "Feature", "properties": { "name": null, "cmt": null, "peligrosidad_dificultad": "p0-d0" }, "geometry": { "type": "MultiLineString", "coordinates": [ [ [ -9.2717515, 42.8849058, 0.0 ], [ -9.2715745, 42.8857658, 0.0 ], [ -9.2713323, 42.8867213, 0.0 ], [ -9.2718633, 42.8862845, 0.0 ] ] ] } },
{ "type": "Feature", "properties": { "name": null, "cmt": null, "peligrosidad_dificultad": "p0-d0" }, "geometry": { "type": "MultiLineString", "coordinates": [ [ [ -9.2443871, 43.0089528, 0.0 ], [ -9.2437139, 43.0085173, 0.0 ], [ -9.2432997, 43.0079304, 0.0 ], [ -9.2429114, 43.0073057, 0.0 ], [ -9.2429373, 43.0068134, 0.0 ], [ -9.242989, 43.0056775, 0.0 ], [ -9.242989, 43.005242, 0.0 ], [ -9.2432479, 43.0047119, 0.0 ], [ -9.2430926, 43.0035191, 0.0 ], [ -9.242756, 43.0036517, 0.0 ] ] ] } },
{ "type": "Feature", "properties": { "name": null, "cmt": null, "peligrosidad_dificultad": "p0-d0" }, "geometry": { "type": "MultiLineString", "coordinates": [ [ [ -9.2600465, 42.9801586, 0.0 ], [ -9.2581359, 42.9789974, 0.0 ], [ -9.2579889, 42.9783952, 0.0 ], [ -9.2567751, 42.9772292, 0.0 ], [ -9.2561371, 42.9761156, 0.0 ], [ -9.2574714, 42.9760121, 0.0 ], [ -9.2584256, 42.9759555, 0.0 ] ] ] } },
{ "type": "Feature", "properties": { "name": null, "cmt": null, "peligrosidad_dificultad": "p0-d0" }, "geometry": { "type": "MultiLineString", "coordinates": [ [ [ -9.2742161, 42.9604429, 0.0 ], [ -9.2746436, 42.9606025, 0.0 ], [ -9.2750376, 42.9608847, 0.0 ], [ -9.2754736, 42.9611301, 0.0 ], [ -9.2757837, 42.9611975, 0.0 ], [ -9.2756747, 42.9609583, 0.0 ], [ -9.2756831, 42.9607988, 0.0 ] ] ] } },
{ "type": "Feature", "properties": { "name": null, "cmt": null, "peligrosidad_dificultad": "p0-d2" }, "geometry": { "type": "MultiLineString", "coordinates": [ [ [ -9.2821599, 42.9536114, 0.0 ], [ -9.2824641, 42.9537273, 0.0 ], [ -9.2825402, 42.9536346, 0.0 ], [ -9.2829014, 42.954168, 0.0 ], [ -9.2830345, 42.954168, 0.0 ], [ -9.2830662, 42.9538897, 0.0 ], [ -9.2830219, 42.9535047, 0.0 ], [ -9.2831106, 42.9533794, 0.0 ], [ -9.2828317, 42.9532681, 0.0 ], [ -9.2827366, 42.953217, 0.0 ], [ -9.2822613, 42.9532449, 0.0 ] ] ] } }
]
}
