{
"type": "FeatureCollection",
"name": "PuntosDeInteres",
"crs": { "type": "name", "properties": { "name": "urn:ogc:def:crs:OGC:1.3:CRS84" } },
"xy_coordinate_resolution": 1e-06,
"features": [
{ "type": "Feature", "properties": { "ele": 0.0, "time": "2020-08-11T23:39:02Z", "magvar": null, "geoidheight": null, "name": "Ponte de Vaosilveiro", "cmt": "Ponte de Vaosilveiro", "desc": "Ponte de Vaosilveiro", "src": null, "link1_href": null, "link1_text": null, "link1_type": null, "link2_href": null, "link2_text": null, "link2_type": null, "sym": null, "type": null, "fix": null, "sat": null, "hdop": null, "vdop": null, "pdop": null, "ageofdgpsdata": null, "dgpsid": null }, "geometry": { "type": "Point", "coordinates": [ -9.242375, 43.001577, 0.0 ] } },
{ "type": "Feature", "properties": { "ele": 0.0, "time": "2020-08-11T23:39:02Z", "magvar": null, "geoidheight": null, "name": "Lires", "cmt": "Lires", "desc": "Lires", "src": null, "link1_href": null, "link1_text": null, "link1_type": null, "link2_href": null, "link2_text": null, "link2_type": null, "sym": null, "type": null, "fix": null, "sat": null, "hdop": null, "vdop": null, "pdop": null, "ageofdgpsdata": null, "dgpsid": null }, "geometry": { "type": "Point", "coordinates": [ -9.244126, 42.998556, 0.0 ] } },
{ "type": "Feature", "properties": { "ele": 0.0, "time": "2020-08-11T23:39:02Z", "magvar": null, "geoidheight": null, "name": "Ría de Lires", "cmt": "Ría de Lires", "desc": "Ría de Lires", "src": null, "link1_href": null, "link1_text": null, "link1_type": null, "link2_href": null, "link2_text": null, "link2_type": null, "sym": null, "type": null, "fix": null, "sat": null, "hdop": null, "vdop": null, "pdop": null, "ageofdgpsdata": null, "dgpsid": null }, "geometry": { "type": "Point", "coordinates": [ -9.255843, 43.002921, 0.0 ] } },
{ "type": "Feature", "properties": { "ele": 0.0, "time": "2020-08-11T23:39:02Z", "magvar": null, "geoidheight": null, "name": "Praia de Lires", "cmt": "Praia de Lires", "desc": "Praia de Lires", "src": null, "link1_href": null, "link1_text": null, "link1_type": null, "link2_href": null, "link2_text": null, "link2_type": null, "sym": null, "type": null, "fix": null, "sat": null, "hdop": null, "vdop": null, "pdop": null, "ageofdgpsdata": null, "dgpsid": null }, "geometry": { "type": "Point", "coordinates": [ -9.259322, 43.000666, 0.0 ] } },
{ "type": "Feature", "properties": { "ele": 0.0, "time": "2020-08-11T23:39:02Z", "magvar": null, "geoidheight": null, "name": "Acantilados Punta da Lagoa", "cmt": "Acantilados Punta da Lagoa", "desc": "Acantilados Punta da Lagoa", "src": null, "link1_href": null, "link1_text": null, "link1_type": null, "link2_href": null, "link2_text": null, "link2_type": null, "sym": null, "type": null, "fix": null, "sat": null, "hdop": null, "vdop": null, "pdop": null, "ageofdgpsdata": null, "dgpsid": null }, "geometry": { "type": "Point", "coordinates": [ -9.260328, 42.988945, 0.0 ] } },
{ "type": "Feature", "properties": { "ele": 0.0, "time": "2020-08-11T23:39:02Z", "magvar": null, "geoidheight": null, "name": "Acantilado da Mexadoira", "cmt": "Acantilado da Mexadoira", "desc": "Acantilado da Mexadoira", "src": null, "link1_href": null, "link1_text": null, "link1_type": null, "link2_href": null, "link2_text": null, "link2_type": null, "sym": null, "type": null, "fix": null, "sat": null, "hdop": null, "vdop": null, "pdop": null, "ageofdgpsdata": null, "dgpsid": null }, "geometry": { "type": "Point", "coordinates": [ -9.260511, 42.979264, 0.0 ] } },
{ "type": "Feature", "properties": { "ele": 0.0, "time": "2020-08-11T23:39:02Z", "magvar": null, "geoidheight": null, "name": "Praia do Rostro", "cmt": "Praia do Rostro", "desc": "Praia do Rostro", "src": null, "link1_href": null, "link1_text": null, "link1_type": null, "link2_href": null, "link2_text": null, "link2_type": null, "sym": null, "type": null, "fix": null, "sat": null, "hdop": null, "vdop": null, "pdop": null, "ageofdgpsdata": null, "dgpsid": null }, "geometry": { "type": "Point", "coordinates": [ -9.263983, 42.967976, 0.0 ] } },
{ "type": "Feature", "properties": { "ele": 0.0, "time": "2020-08-11T23:39:02Z", "magvar": null, "geoidheight": null, "name": "Punta do Rostro", "cmt": "Punta do Rostro", "desc": "Punta do Rostro", "src": null, "link1_href": null, "link1_text": null, "link1_type": null, "link2_href": null, "link2_text": null, "link2_type": null, "sym": null, "type": null, "fix": null, "sat": null, "hdop": null, "vdop": null, "pdop": null, "ageofdgpsdata": null, "dgpsid": null }, "geometry": { "type": "Point", "coordinates": [ -9.276132, 42.961848, 0.0 ] } },
{ "type": "Feature", "properties": { "ele": 0.0, "time": "2020-08-11T23:39:02Z", "magvar": null, "geoidheight": null, "name": "Punta do Castelo", "cmt": "Punta do Castelo", "desc": "Punta do Castelo", "src": null, "link1_href": null, "link1_text": null, "link1_type": null, "link2_href": null, "link2_text": null, "link2_type": null, "sym": null, "type": null, "fix": null, "sat": null, "hdop": null, "vdop": null, "pdop": null, "ageofdgpsdata": null, "dgpsid": null }, "geometry": { "type": "Point", "coordinates": [ -9.282336, 42.955454, 0.0 ] } },
{ "type": "Feature", "properties": { "ele": 0.0, "time": "2020-08-11T23:39:02Z", "magvar": null, "geoidheight": null, "name": "Castro de Castromiñán", "cmt": "Castro de Castromiñán", "desc": "Castro de Castromiñán", "src": null, "link1_href": null, "link1_text": null, "link1_type": null, "link2_href": null, "link2_text": null, "link2_type": null, "sym": null, "type": null, "fix": null, "sat": null, "hdop": null, "vdop": null, "pdop": null, "ageofdgpsdata": null, "dgpsid": null }, "geometry": { "type": "Point", "coordinates": [ -9.283009, 42.953763, 0.0 ] } },
{ "type": "Feature", "properties": { "ele": 0.0, "time": "2020-08-11T23:39:02Z", "magvar": null, "geoidheight": null, "name": "Praia de Arnela", "cmt": "Praia de Arnela", "desc": "Praia de Arnela", "src": null, "link1_href": null, "link1_text": null, "link1_type": null, "link2_href": null, "link2_text": null, "link2_type": null, "sym": null, "type": null, "fix": null, "sat": null, "hdop": null, "vdop": null, "pdop": null, "ageofdgpsdata": null, "dgpsid": null }, "geometry": { "type": "Point", "coordinates": [ -9.283361, 42.942064, 0.0 ] } },
{ "type": "Feature", "properties": { "ele": 0.0, "time": "2020-08-11T23:39:02Z", "magvar": null, "geoidheight": null, "name": "Acantilados Cabo de la Nave", "cmt": "Acantilados Cabo de la Nave", "desc": "Acantilados Cabo de la Nave", "src": null, "link1_href": null, "link1_text": null, "link1_type": null, "link2_href": null, "link2_text": null, "link2_type": null, "sym": null, "type": null, "fix": null, "sat": null, "hdop": null, "vdop": null, "pdop": null, "ageofdgpsdata": null, "dgpsid": null }, "geometry": { "type": "Point", "coordinates": [ -9.287266, 42.940273, 0.0 ] } },
{ "type": "Feature", "properties": { "ele": 0.0, "time": "2020-08-11T23:39:02Z", "magvar": null, "geoidheight": null, "name": "Punta Longa", "cmt": "Punta Longa", "desc": "Punta Longa", "src": null, "link1_href": null, "link1_text": null, "link1_type": null, "link2_href": null, "link2_text": null, "link2_type": null, "sym": null, "type": null, "fix": null, "sat": null, "hdop": null, "vdop": null, "pdop": null, "ageofdgpsdata": null, "dgpsid": null }, "geometry": { "type": "Point", "coordinates": [ -9.291596, 42.939273, 0.0 ] } },
{ "type": "Feature", "properties": { "ele": 0.0, "time": "2020-08-11T23:39:02Z", "magvar": null, "geoidheight": null, "name": "Antenas Cabo de la Nave", "cmt": "Antenas Cabo de la Nave", "desc": "Antenas Cabo de la Nave", "src": null, "link1_href": null, "link1_text": null, "link1_type": null, "link2_href": null, "link2_text": null, "link2_type": null, "sym": null, "type": null, "fix": null, "sat": null, "hdop": null, "vdop": null, "pdop": null, "ageofdgpsdata": null, "dgpsid": null }, "geometry": { "type": "Point", "coordinates": [ -9.291472, 42.924624, 0.0 ] } },
{ "type": "Feature", "properties": { "ele": 0.0, "time": "2020-08-11T23:39:02Z", "magvar": null, "geoidheight": null, "name": "Praia Mar de Fora", "cmt": "Praia Mar de Fora", "desc": "Praia Mar de Fora", "src": null, "link1_href": null, "link1_text": null, "link1_type": null, "link2_href": null, "link2_text": null, "link2_type": null, "sym": null, "type": null, "fix": null, "sat": null, "hdop": null, "vdop": null, "pdop": null, "ageofdgpsdata": null, "dgpsid": null }, "geometry": { "type": "Point", "coordinates": [ -9.274706, 42.908181, 0.0 ] } },
{ "type": "Feature", "properties": { "ele": 0.0, "time": "2020-08-11T23:39:02Z", "magvar": null, "geoidheight": null, "name": "Camiño da Insua", "cmt": "Camiño da Insua", "desc": "Camiño da Insua", "src": null, "link1_href": null, "link1_text": null, "link1_type": null, "link2_href": null, "link2_text": null, "link2_type": null, "sym": null, "type": null, "fix": null, "sat": null, "hdop": null, "vdop": null, "pdop": null, "ageofdgpsdata": null, "dgpsid": null }, "geometry": { "type": "Point", "coordinates": [ -9.270136, 42.903162, 0.0 ] } },
{ "type": "Feature", "properties": { "ele": 0.0, "time": "2020-08-11T23:39:02Z", "magvar": null, "geoidheight": null, "name": "Fonte da Insua", "cmt": "Fonte da Insua", "desc": "Fonte da Insua", "src": null, "link1_href": null, "link1_text": null, "link1_type": null, "link2_href": null, "link2_text": null, "link2_type": null, "sym": null, "type": null, "fix": null, "sat": null, "hdop": null, "vdop": null, "pdop": null, "ageofdgpsdata": null, "dgpsid": null }, "geometry": { "type": "Point", "coordinates": [ -9.27083, 42.904099, 0.0 ] } },
{ "type": "Feature", "properties": { "ele": 0.0, "time": "2020-08-11T23:39:02Z", "magvar": null, "geoidheight": null, "name": "Monte Facho", "cmt": "Monte Facho", "desc": "Monte Facho", "src": null, "link1_href": null, "link1_text": null, "link1_type": null, "link2_href": null, "link2_text": null, "link2_type": null, "sym": null, "type": null, "fix": null, "sat": null, "hdop": null, "vdop": null, "pdop": null, "ageofdgpsdata": null, "dgpsid": null }, "geometry": { "type": "Point", "coordinates": [ -9.274105, 42.890945, 0.0 ] } },
{ "type": "Feature", "properties": { "ele": 0.0, "time": "2020-08-11T23:39:02Z", "magvar": null, "geoidheight": null, "name": "Faro Fisterra", "cmt": "Faro Fisterra", "desc": "Faro Fisterra", "src": null, "link1_href": null, "link1_text": null, "link1_type": null, "link2_href": null, "link2_text": null, "link2_type": null, "sym": null, "type": null, "fix": null, "sat": null, "hdop": null, "vdop": null, "pdop": null, "ageofdgpsdata": null, "dgpsid": null }, "geometry": { "type": "Point", "coordinates": [ -9.271923, 42.88225, 0.0 ] } },
{ "type": "Feature", "properties": { "ele": 18.4, "time": "2020-08-11T23:39:02Z", "magvar": null, "geoidheight": null, "name": "Bar A Galería", "cmt": "Bar A Galería", "desc": "Bar A Galería", "src": null, "link1_href": null, "link1_text": null, "link1_type": null, "link2_href": null, "link2_text": null, "link2_type": null, "sym": null, "type": null, "fix": null, "sat": null, "hdop": null, "vdop": null, "pdop": null, "ageofdgpsdata": null, "dgpsid": null }, "geometry": { "type": "Point", "coordinates": [ -9.262845, 42.906788, 18.4 ] } },
{ "type": "Feature", "properties": { "ele": 0.0, "time": "2020-08-11T23:39:02Z", "magvar": null, "geoidheight": null, "name": "Hotel Ancora", "cmt": "Hotel Ancora", "desc": "Hotel Ancora", "src": null, "link1_href": null, "link1_text": null, "link1_type": null, "link2_href": null, "link2_text": null, "link2_type": null, "sym": null, "type": null, "fix": null, "sat": null, "hdop": null, "vdop": null, "pdop": null, "ageofdgpsdata": null, "dgpsid": null }, "geometry": { "type": "Point", "coordinates": [ -9.265115, 42.905921, 0.0 ] } },
{ "type": "Feature", "properties": { "ele": 0.0, "time": "2020-08-11T23:39:02Z", "magvar": null, "geoidheight": null, "name": "Hostal Restaurante As Eiras", "cmt": "Hostal Restaurante As Eiras", "desc": "Hostal Restaurante As Eiras", "src": null, "link1_href": null, "link1_text": null, "link1_type": null, "link2_href": null, "link2_text": null, "link2_type": null, "sym": null, "type": null, "fix": null, "sat": null, "hdop": null, "vdop": null, "pdop": null, "ageofdgpsdata": null, "dgpsid": null }, "geometry": { "type": "Point", "coordinates": [ -9.24377, 42.997987, 0.0 ] } },
{ "type": "Feature", "properties": { "ele": 0.0, "time": "2020-08-11T23:39:02Z", "magvar": null, "geoidheight": null, "name": "Bar Playa de Lires", "cmt": "Bar Playa de Lires", "desc": "Bar Playa de Lires", "src": null, "link1_href": null, "link1_text": null, "link1_type": null, "link2_href": null, "link2_text": null, "link2_type": null, "sym": null, "type": null, "fix": null, "sat": null, "hdop": null, "vdop": null, "pdop": null, "ageofdgpsdata": null, "dgpsid": null }, "geometry": { "type": "Point", "coordinates": [ -9.257357, 43.001249, 0.0 ] } },
{ "type": "Feature", "properties": { "ele": 0.0, "time": "2020-08-11T23:39:02Z", "magvar": null, "geoidheight": null, "name": "Bar da Insua", "cmt": "Bar da Insua", "desc": "Bar da Insua", "src": null, "link1_href": null, "link1_text": null, "link1_type": null, "link2_href": null, "link2_text": null, "link2_type": null, "sym": null, "type": null, "fix": null, "sat": null, "hdop": null, "vdop": null, "pdop": null, "ageofdgpsdata": null, "dgpsid": null }, "geometry": { "type": "Point", "coordinates": [ -9.269654, 42.903873, 0.0 ] } },
{ "type": "Feature", "properties": { "ele": 0.0, "time": "2020-08-11T23:39:02Z", "magvar": null, "geoidheight": null, "name": "Cabañas de Lires", "cmt": "Cabañas de Lires", "desc": "Cabañas de Lires", "src": null, "link1_href": null, "link1_text": null, "link1_type": null, "link2_href": null, "link2_text": null, "link2_type": null, "sym": null, "type": null, "fix": null, "sat": null, "hdop": null, "vdop": null, "pdop": null, "ageofdgpsdata": null, "dgpsid": null }, "geometry": { "type": "Point", "coordinates": [ -9.241346, 42.996789, 0.0 ] } },
{ "type": "Feature", "properties": { "ele": 0.0, "time": "2020-08-11T23:39:02Z", "magvar": null, "geoidheight": null, "name": "Albergue de Sonia", "cmt": "Albergue de Sonia", "desc": "Albergue de Sonia", "src": null, "link1_href": null, "link1_text": null, "link1_type": null, "link2_href": null, "link2_text": null, "link2_type": null, "sym": null, "type": null, "fix": null, "sat": null, "hdop": null, "vdop": null, "pdop": null, "ageofdgpsdata": null, "dgpsid": null }, "geometry": { "type": "Point", "coordinates": [ -9.266065, 42.907811, 0.0 ] } }
]
}
