{
"type": "FeatureCollection",
"name": "ruta",
"crs": { "type": "name", "properties": { "name": "urn:ogc:def:crs:OGC:1.3:CRS84" } },
"xy_coordinate_resolution": 1e-07,
"features": [
{ "type": "Feature", "properties": { "name": "O Camiño dos Faros: Etapa 8 (Nemiña-Finisterre) - Track ofic...", "peligrosidad_dificultad": "p0-d0" }, "geometry": { "type": "MultiLineString", "coordinates": [ [ [ -9.290914, 42.9239695, 226.29763331867133 ], [ -9.290017, 42.923825, 226.242 ], [ -9.289028, 42.924246, 226.222 ], [ -9.286365, 42.92576, 183.514 ], [ -9.284526, 42.924633, 186.008 ], [ -9.283572, 42.924385, 186.099 ], [ -9.282825, 42.923814, 186.068 ], [ -9.28187, 42.923717, 186.368 ], [ -9.280943, 42.922687, 188.253 ], [ -9.280207, 42.921506, 188.222 ], [ -9.280204, 42.92121, 188.287 ], [ -9.279584, 42.919848, 191.959 ], [ -9.279141, 42.919498, 191.969 ], [ -9.278312, 42.917962, 191.999 ], [ -9.278249, 42.916546, 119.907 ], [ -9.278561, 42.91622, 117.527 ], [ -9.27854, 42.915926, 117.508 ], [ -9.278022, 42.915081, 101.454 ], [ -9.277527, 42.91335, 57.533 ], [ -9.276797, 42.911919, 29.893 ], [ -9.276894, 42.911773, 29.898 ], [ -9.275966, 42.911199, -7.427 ], [ -9.275645, 42.911229, -6.862 ], [ -9.274836, 42.910261, -8.894 ], [ -9.274622, 42.9098, -8.234 ], [ -9.27445, 42.90778, -6.826 ], [ -9.274159, 42.90761, -4.847 ], [ -9.273703, 42.908223, 0.411 ], [ -9.273913, 42.907223, 6.808 ], [ -9.273696, 42.907468, 9.457 ], [ -9.27391, 42.90674, 14.646 ], [ -9.273837, 42.906361, 18.826 ], [ -9.272449, 42.906395, 20.071 ], [ -9.270933, 42.906052, 33.56 ], [ -9.270784, 42.905767, 41.645 ], [ -9.270838, 42.904877, 54.187 ], [ -9.270506, 42.904541, 59.357 ], [ -9.269627, 42.904142, 61.533 ], [ -9.270211, 42.902903, 74.123 ], [ -9.270106, 42.902516, 84.215 ], [ -9.270251, 42.902339, 89.308 ], [ -9.270651, 42.90221, 94.758 ], [ -9.271506, 42.902287, 97.047 ], [ -9.27346, 42.902127, 103.837 ], [ -9.27428, 42.901528, 107.292 ], [ -9.274974, 42.900632, 106.911 ], [ -9.275475, 42.900234, 104.736 ], [ -9.275589, 42.899257, 104.938 ], [ -9.275934, 42.898263, 110.978 ], [ -9.27587, 42.897477, 111.767 ], [ -9.276386, 42.896479, 105.281 ], [ -9.276344, 42.896244, 103.919 ], [ -9.277111, 42.894897, 100.308 ], [ -9.277101, 42.894539, 100.191 ], [ -9.277516, 42.894346, 98.96 ], [ -9.2783126, 42.8933437, 100.953822497039994 ] ] ] } },
{ "type": "Feature", "properties": { "name": "O Camiño dos Faros: Etapa 8 (Nemiña-Finisterre) - Track ofic...", "peligrosidad_dificultad": "p0-d0" }, "geometry": { "type": "MultiLineString", "coordinates": [ [ [ -9.268475, 43.012496, 3.811 ], [ -9.267864, 43.01254, 3.221 ], [ -9.267557, 43.012389, 2.303 ], [ -9.266148, 43.012274, 6.108 ], [ -9.26581, 43.012787, 11.196 ], [ -9.265703, 43.013307, 17.945 ], [ -9.264893, 43.013181, 23.745 ], [ -9.264004, 43.013318, 30.26 ], [ -9.262303, 43.013168, 28.169 ], [ -9.262139, 43.013088, 27.564 ], [ -9.262008, 43.012656, 23.836 ], [ -9.262162, 43.010952, 6.736 ], [ -9.262021, 43.0108941, 7.896047057756567 ] ] ] } },
{ "type": "Feature", "properties": { "name": "O Camiño dos Faros: Etapa 8 (Nemiña-Finisterre) - Track ofic...", "peligrosidad_dificultad": "p1-d0" }, "geometry": { "type": "MultiLineString", "coordinates": [ [ [ -9.262021, 43.0108941, 7.896047057756567 ], [ -9.261136, 43.010531, 15.175 ], [ -9.260191, 43.009599, 22.028 ], [ -9.25899, 43.008711, 32.92 ], [ -9.256398, 43.007464, 37.808 ], [ -9.254341, 43.005677, 27.982 ], [ -9.253692, 43.005382, 23.711 ], [ -9.252087, 43.005075, 20.071 ], [ -9.251522, 43.00512, 20.036 ], [ -9.249341, 43.00595, 20.085 ], [ -9.248932, 43.00632, 20.09 ], [ -9.248672, 43.007023, 20.022 ], [ -9.248653, 43.007871, 48.532 ], [ -9.249146, 43.00892, 54.795 ], [ -9.248322, 43.009801, 48.949 ], [ -9.248181, 43.010593, 41.923 ], [ -9.247704, 43.011422, 41.608 ], [ -9.247414, 43.011468, 39.954 ], [ -9.2474031, 43.0114604, 39.74040743242022 ] ] ] } },
{ "type": "Feature", "properties": { "name": "O Camiño dos Faros: Etapa 8 (Nemiña-Finisterre) - Track ofic...", "peligrosidad_dificultad": "p0-d0" }, "geometry": { "type": "MultiLineString", "coordinates": [ [ [ -9.2474031, 43.0114604, 39.74040743242022 ], [ -9.246799, 43.011039, 27.863 ], [ -9.246859, 43.010583, 26.923 ], [ -9.246574, 43.010064, 27.778 ], [ -9.245554, 43.009374, 35.427 ], [ -9.243801, 43.008936, 49.832 ], [ -9.242729, 43.008158, 48.694 ], [ -9.242159, 43.007212, 47.044 ], [ -9.242153, 43.006426, 43.893 ], [ -9.242009, 43.006082, 42.365 ], [ -9.240902, 43.005615, 41.521 ], [ -9.242145, 43.005055, 33.508 ], [ -9.242633, 43.004462, 24.344 ], [ -9.242576, 43.003941, 24.373 ], [ -9.242098, 43.002629, 17.943 ], [ -9.241314, 43.002256, 12.718 ], [ -9.241293, 43.002101, 12.197 ], [ -9.241967, 43.001955, 11.322 ], [ -9.242218, 43.001652, 11.994 ], [ -9.242152, 43.001493, 12.344 ], [ -9.242425, 43.000979, 19.257 ], [ -9.243008, 43.000288, 26.7 ], [ -9.244026, 42.999771, 26.32 ], [ -9.244189, 42.999454, 23.908 ], [ -9.243926, 42.998811, 25.98 ], [ -9.244271, 42.99836, 21.859 ], [ -9.244408, 42.997709, 16.369 ], [ -9.244952, 42.997499, 9.264 ], [ -9.245897, 42.997558, 3.923 ], [ -9.2470303, 42.9970953, 2.549234908330925 ] ] ] } },
{ "type": "Feature", "properties": { "name": "O Camiño dos Faros: Etapa 8 (Nemiña-Finisterre) - Track ofic...", "peligrosidad_dificultad": "p1-d0" }, "geometry": { "type": "MultiLineString", "coordinates": [ [ [ -9.2470303, 42.9970953, 2.549234908330925 ], [ -9.24732, 42.996977, 2.198 ], [ -9.248069, 42.997013, 2.11 ], [ -9.248466, 42.997568, 0.94 ], [ -9.248835, 42.998622, 0.614 ], [ -9.249991, 42.999488, 1.254 ], [ -9.252302, 43.000261, 3.109 ], [ -9.252691, 43.00118, 0.908 ], [ -9.253122, 43.001577, 1.446 ], [ -9.25372, 43.002064, 2.995 ], [ -9.255002, 43.002698, 2.315 ], [ -9.25559, 43.002765, 3.33 ], [ -9.256919, 43.002205, 8.079 ], [ -9.257321, 43.00179, 9.454 ], [ -9.257547, 43.001261, 12.376 ], [ -9.2583639, 43.0005453, 11.595727303013648 ] ] ] } },
{ "type": "Feature", "properties": { "name": "O Camiño dos Faros: Etapa 8 (Nemiña-Finisterre) - Track ofic...", "peligrosidad_dificultad": "p1-d1" }, "geometry": { "type": "MultiLineString", "coordinates": [ [ [ -9.2599409, 42.9888983, 91.628942562017343 ], [ -9.259845, 42.988762, 89.575 ], [ -9.258372, 42.987915, 110.68 ], [ -9.2582007, 42.9876463, 113.156616594095169 ] ] ] } },
{ "type": "Feature", "properties": { "name": "O Camiño dos Faros: Etapa 8 (Nemiña-Finisterre) - Track ofic...", "peligrosidad_dificultad": "p0-d0" }, "geometry": { "type": "MultiLineString", "coordinates": [ [ [ -9.2583639, 43.0005453, 11.595727303013648 ], [ -9.258395, 43.000518, 11.566 ], [ -9.258657, 42.999796, 24.395 ], [ -9.258533, 42.998907, 32.549 ], [ -9.25643, 42.997114, 48.423 ], [ -9.256314, 42.99624, 44.008 ], [ -9.256672, 42.995868, 40.544 ], [ -9.256907, 42.994922, 35.643 ], [ -9.257243, 42.994849, 31.613 ], [ -9.25796, 42.995349, 20.148 ], [ -9.2579287, 42.9949254, 32.249066077945784 ] ] ] } },
{ "type": "Feature", "properties": { "name": "O Camiño dos Faros: Etapa 8 (Nemiña-Finisterre) - Track ofic...", "peligrosidad_dificultad": "p3-d2" }, "geometry": { "type": "MultiLineString", "coordinates": [ [ [ -9.2606534, 42.9793293, 43.390191823313742 ], [ -9.259983, 42.978702, 33.647 ], [ -9.259836, 42.978013, 21.587 ], [ -9.260249, 42.977622, 19.876 ], [ -9.2601461, 42.9772264, 26.214611281401567 ] ] ] } },
{ "type": "Feature", "properties": { "name": "O Camiño dos Faros: Etapa 8 (Nemiña-Finisterre) - Track ofic...", "peligrosidad_dificultad": "p0-d0" }, "geometry": { "type": "MultiLineString", "coordinates": [ [ [ -9.2582007, 42.9876463, 113.156616594095169 ], [ -9.257964, 42.987275, 116.579 ], [ -9.257955, 42.986432, 120.314 ], [ -9.258465, 42.985652, 120.556 ], [ -9.258289, 42.985322, 127.536 ], [ -9.258386, 42.984339, 126.829 ], [ -9.258168, 42.983971, 131.5 ], [ -9.258415, 42.983825, 131.52 ], [ -9.258412, 42.982949, 131.508 ], [ -9.25949, 42.982916, 131.587 ], [ -9.260189, 42.983124, 79.396 ], [ -9.261107, 42.981761, 75.586 ], [ -9.260798, 42.980694, 70.921 ], [ -9.2602, 42.98016, 70.97 ], [ -9.261383, 42.980012, 53.995 ], [ -9.2606534, 42.9793293, 43.390191823313742 ] ] ] } },
{ "type": "Feature", "properties": { "name": "O Camiño dos Faros: Etapa 8 (Nemiña-Finisterre) - Track ofic...", "peligrosidad_dificultad": "p0-d2" }, "geometry": { "type": "MultiLineString", "coordinates": [ [ [ -9.2800155, 42.9549978, 49.156926840455661 ], [ -9.280686, 42.954435, 50.622 ], [ -9.281699, 42.954036, 54.562 ], [ -9.2818684, 42.9538583, 55.587167063440376 ] ] ] } },
{ "type": "Feature", "properties": { "name": "O Camiño dos Faros: Etapa 8 (Nemiña-Finisterre) - Track ofic...", "peligrosidad_dificultad": "p0-d0" }, "geometry": { "type": "MultiLineString", "coordinates": [ [ [ -9.2818684, 42.9538583, 55.587167063440376 ], [ -9.282252, 42.953456, 57.908 ], [ -9.282142, 42.953172, 57.908 ], [ -9.282769, 42.952398, 57.987 ], [ -9.2822192, 42.9519454, 57.965008883845321 ] ] ] } },
{ "type": "Feature", "properties": { "name": "O Camiño dos Faros: Etapa 8 (Nemiña-Finisterre) - Track ofic...", "peligrosidad_dificultad": "p2-d2" }, "geometry": { "type": "MultiLineString", "coordinates": [ [ [ -9.2822192, 42.9519454, 57.965008883845321 ], [ -9.281994, 42.95176, 57.956 ], [ -9.28186, 42.951451, 57.946 ], [ -9.281796, 42.950542, 57.911 ], [ -9.282193, 42.949916, 57.97 ], [ -9.281922, 42.94934, 57.965 ], [ -9.281818, 42.948618, 57.987 ], [ -9.281313, 42.947758, 27.947 ], [ -9.281347, 42.947243, 27.928 ], [ -9.28069, 42.946578, 27.989 ], [ -9.280693, 42.945951, 27.917 ], [ -9.280449, 42.945441, 27.908 ], [ -9.28071, 42.945263, 41.617 ], [ -9.2806684, 42.945203, 42.338605866018291 ] ] ] } },
{ "type": "Feature", "properties": { "name": "O Camiño dos Faros: Etapa 8 (Nemiña-Finisterre) - Track ofic...", "peligrosidad_dificultad": "p0-d0" }, "geometry": { "type": "MultiLineString", "coordinates": [ [ [ -9.2601461, 42.9772264, 26.214611281401567 ], [ -9.26014, 42.977203, 26.59 ], [ -9.258923, 42.976435, 48.119 ], [ -9.258135, 42.97533, 40.208 ], [ -9.258317, 42.9746, 30.942 ], [ -9.257853, 42.973725, 30.921 ], [ -9.257835, 42.973366, 7.791 ], [ -9.25837, 42.973415, 4.766 ], [ -9.258813, 42.974004, 4.765 ], [ -9.259613, 42.974074, 4.71 ], [ -9.260452, 42.973662, 4.732 ], [ -9.261888, 42.97091, 2.922 ], [ -9.263202, 42.969103, 2.291 ], [ -9.267224, 42.964303, 3.881 ], [ -9.269412, 42.962348, 2.719 ], [ -9.270922, 42.961535, 2.608 ], [ -9.270989, 42.961036, 1.874 ], [ -9.270455, 42.960676, 1.893 ], [ -9.270962, 42.96005, 1.823 ], [ -9.270915, 42.959228, 19.318 ], [ -9.27148, 42.959547, 20.087 ], [ -9.27264, 42.959634, 19.662 ], [ -9.273716, 42.959985, 19.684 ], [ -9.27384, 42.960267, 19.624 ], [ -9.2755416, 42.961549, 31.212677362334205 ] ] ] } },
{ "type": "Feature", "properties": { "name": "O Camiño dos Faros: Etapa 8 (Nemiña-Finisterre) - Track ofic...", "peligrosidad_dificultad": "p0-d0" }, "geometry": { "type": "MultiLineString", "coordinates": [ [ [ -9.2797786, 42.9397306, 83.264258430125935 ], [ -9.282535, 42.940498, 63.097 ], [ -9.2833607, 42.9405663, 60.159159914734389 ] ] ] } },
{ "type": "Feature", "properties": { "name": "O Camiño dos Faros: Etapa 8 (Nemiña-Finisterre) - Track ofic...", "peligrosidad_dificultad": "p0-d0" }, "geometry": { "type": "MultiLineString", "coordinates": [ [ [ -9.2833607, 42.9405663, 60.159159914734389 ], [ -9.283707, 42.940595, 58.927 ], [ -9.284621, 42.941551, 51.968 ], [ -9.286472, 42.942418, 43.314 ], [ -9.287338, 42.943136, 46.608 ], [ -9.287843, 42.942654, 49.237 ], [ -9.2877716, 42.942495, 55.649302792121759 ] ] ] } },
{ "type": "Feature", "properties": { "name": "O Camiño dos Faros: Etapa 8 (Nemiña-Finisterre) - Track ofic...", "peligrosidad_dificultad": "p1-d3" }, "geometry": { "type": "MultiLineString", "coordinates": [ [ [ -9.2877716, 42.942495, 55.649302792121759 ], [ -9.287223, 42.941273, 104.926 ], [ -9.28735, 42.940074, 104.136 ], [ -9.287737, 42.93974, 113.251 ], [ -9.28772, 42.939332, 113.32 ], [ -9.288037, 42.93845, 113.445 ], [ -9.2880718, 42.9380448, 113.567045652614297 ] ] ] } },
{ "type": "Feature", "properties": { "name": "O Camiño dos Faros: Etapa 8 (Nemiña-Finisterre) - Track ofic...", "peligrosidad_dificultad": "p0-d0" }, "geometry": { "type": "MultiLineString", "coordinates": [ [ [ -9.2806684, 42.945203, 42.338605866018291 ], [ -9.280393, 42.944806, 47.116 ], [ -9.280437, 42.943265, 61.896 ], [ -9.279853, 42.942837, 72.391 ], [ -9.278593, 42.942648, 83.24 ], [ -9.27855, 42.941362, 83.485 ], [ -9.279755, 42.939724, 83.437 ], [ -9.2797786, 42.9397306, 83.264258430125935 ] ] ] } },
{ "type": "Feature", "properties": { "name": "O Camiño dos Faros: Etapa 8 (Nemiña-Finisterre) - Track ofic...", "peligrosidad_dificultad": "p0-d0" }, "geometry": { "type": "MultiLineString", "coordinates": [ [ [ -9.2880718, 42.9380448, 113.567045652614297 ], [ -9.288086, 42.937879, 113.617 ], [ -9.287803, 42.936706, 113.887 ], [ -9.288422, 42.936222, 116.319 ], [ -9.288446, 42.936003, 123.609 ], [ -9.288571, 42.936042, 116.619 ], [ -9.288823, 42.935816, 113.908 ], [ -9.289298, 42.935134, 110.056 ], [ -9.288956, 42.934379, 121.565 ], [ -9.289109, 42.934084, 123.845 ], [ -9.28896, 42.933742, 123.84 ], [ -9.289057, 42.933446, 123.869 ], [ -9.288829, 42.933076, 125.074 ], [ -9.288901, 42.931797, 125.526 ], [ -9.28866, 42.931062, 126.546 ], [ -9.288641, 42.930454, 126.948 ], [ -9.288815, 42.930089, 128.261 ], [ -9.288202, 42.929792, 146.717 ], [ -9.288191, 42.9297739, 147.125476377261094 ] ] ] } },
{ "type": "Feature", "properties": { "name": "O Camiño dos Faros: Etapa 8 (Nemiña-Finisterre) - Track ofic...", "peligrosidad_dificultad": "p0-d0" }, "geometry": { "type": "MultiLineString", "coordinates": [ [ [ -9.288191, 42.9297739, 147.125476377261094 ], [ -9.288052, 42.929544, 152.308 ], [ -9.288861, 42.928499, 153.979 ], [ -9.289289, 42.92845, 153.918 ], [ -9.289721, 42.928201, 153.958 ], [ -9.290041, 42.927753, 153.993 ], [ -9.290496, 42.926362, 153.962 ], [ -9.291373, 42.925258, 153.937 ], [ -9.291615, 42.924749, 226.249 ], [ -9.290936, 42.923973, 226.299 ], [ -9.290914, 42.9239695, 226.29763331867133 ] ] ] } },
{ "type": "Feature", "properties": { "name": "O Camiño dos Faros: Etapa 8 (Nemiña-Finisterre) - Track ofic...", "peligrosidad_dificultad": "p0-d2" }, "geometry": { "type": "MultiLineString", "coordinates": [ [ [ -9.2783126, 42.8933437, 100.953822497039994 ], [ -9.278407, 42.893225, 101.19 ], [ -9.279193, 42.892685, 105.865 ], [ -9.279085, 42.892412, 111.514 ], [ -9.279127, 42.891663, 133.339 ], [ -9.278152, 42.891089, 154.641 ], [ -9.277056, 42.891025, 160.811 ], [ -9.276313, 42.891335, 160.894 ], [ -9.275992, 42.891302, 160.857 ], [ -9.275652, 42.891676, 160.822 ], [ -9.274622, 42.891266, 209.708 ], [ -9.2745084, 42.8912542, 212.398319930966693 ] ] ] } },
{ "type": "Feature", "properties": { "name": "O Camiño dos Faros: Etapa 8 (Nemiña-Finisterre) - Track ofic...", "peligrosidad_dificultad": "p0-d0" }, "geometry": { "type": "MultiLineString", "coordinates": [ [ [ -9.2745084, 42.8912542, 212.398319930966693 ], [ -9.274084, 42.89121, 222.444 ], [ -9.273416, 42.890758, 217.273 ], [ -9.271875, 42.890673, 204.163 ], [ -9.272466, 42.889745, 197.388 ], [ -9.27244, 42.889124, 189.567 ], [ -9.272645, 42.888494, 189.522 ], [ -9.272525, 42.888423, 189.554 ], [ -9.271546, 42.888991, 166.844 ], [ -9.271608, 42.88783, 145.149 ], [ -9.272091, 42.88694, 140.402 ], [ -9.271939, 42.886166, 131.222 ], [ -9.272075, 42.885739, 139.108 ], [ -9.271924, 42.885646, 138.699 ], [ -9.271995, 42.885248, 135.898 ], [ -9.271842, 42.884967, 132.518 ], [ -9.271879, 42.883937, 129.353 ], [ -9.271601, 42.883256, 129.282 ], [ -9.271834, 42.882585, 129.267 ], [ -9.271663, 42.882509, 129.229 ], [ -9.271694, 42.882365, 129.269 ], [ -9.272042, 42.881776, 129.294 ] ] ] } },
{ "type": "Feature", "properties": { "name": "O Camiño dos Faros: Etapa 8 (Nemiña-Finisterre) - Track ofic...", "peligrosidad_dificultad": "p0-d2" }, "geometry": { "type": "MultiLineString", "coordinates": [ [ [ -9.2579287, 42.9949254, 32.249066077945784 ], [ -9.257892, 42.994429, 46.427 ], [ -9.257651, 42.994307, 50.372 ], [ -9.257785, 42.994094, 56.294 ], [ -9.2577304, 42.9940085, 58.873056166964865 ] ] ] } },
{ "type": "Feature", "properties": { "name": "O Camiño dos Faros: Etapa 8 (Nemiña-Finisterre) - Track ofic...", "peligrosidad_dificultad": "p0-d0" }, "geometry": { "type": "MultiLineString", "coordinates": [ [ [ -9.2577304, 42.9940085, 58.873056166964865 ], [ -9.257364, 42.993435, 76.164 ], [ -9.257553, 42.99176, 96.516 ], [ -9.257823, 42.990591, 99.476 ], [ -9.258084, 42.990162, 97.213 ], [ -9.257945, 42.989635, 99.808 ], [ -9.258888, 42.989251, 92.996 ], [ -9.260063, 42.989072, 94.245 ], [ -9.2599409, 42.9888983, 91.628942562017343 ] ] ] } },
{ "type": "Feature", "properties": { "name": "O Camiño dos Faros: Etapa 8 (Nemiña-Finisterre) - Track ofic...", "peligrosidad_dificultad": "p3-d2" }, "geometry": { "type": "MultiLineString", "coordinates": [ [ [ -9.2755416, 42.961549, 31.212677362334205 ], [ -9.275839, 42.961773, 33.238 ], [ -9.276101, 42.961741, 34.07 ], [ -9.2762593, 42.9615836, 36.082856003259714 ] ] ] } },
{ "type": "Feature", "properties": { "name": "O Camiño dos Faros: Etapa 8 (Nemiña-Finisterre) - Track ofic...", "peligrosidad_dificultad": "p0-d0" }, "geometry": { "type": "MultiLineString", "coordinates": [ [ [ -9.2762593, 42.9615836, 36.082856003259714 ], [ -9.276435, 42.961409, 38.317 ], [ -9.276082, 42.961237, 38.308 ], [ -9.275707, 42.960728, 46.848 ], [ -9.275752, 42.959905, 51.977 ], [ -9.27548, 42.958635, 57.287 ], [ -9.275611, 42.958341, 60.232 ], [ -9.276651, 42.957703, 60.261 ], [ -9.277246, 42.956214, 61.216 ], [ -9.27789, 42.95564, 64.718 ], [ -9.279746, 42.955224, 48.568 ], [ -9.2800155, 42.9549978, 49.156926840455661 ] ] ] } }
]
}
