{
"type": "FeatureCollection",
"name": "atajos",
"crs": { "type": "name", "properties": { "name": "urn:ogc:def:crs:OGC:1.3:CRS84" } },
"xy_coordinate_resolution": 1e-07,
"features": [
{ "type": "Feature", "properties": { "name": "Subida a Pta. Buitra (300m, 21%)", "cmt": "Subida a Pta. Buitra (300m, 21%)", "peligrosidad_dificultad": "p0-d3" }, "geometry": { "type": "MultiLineString", "coordinates": [ [ [ -9.2439579, 43.0804384, 0.0 ], [ -9.2439052, 43.0812083, 0.0 ], [ -9.2443268, 43.0818627, 0.0 ], [ -9.2441687, 43.0831842, 0.0 ], [ -9.2456268, 43.0831457, 0.0 ], [ -9.2467159, 43.0826197, 0.0 ], [ -9.2476646, 43.0826582, 0.0 ] ] ] } },
{ "type": "Feature", "properties": { "name": "Praia de Moreira", "cmt": "Praia de Moreira", "peligrosidad_dificultad": "p1-d1" }, "geometry": { "type": "MultiLineString", "coordinates": [ [ [ -9.2680226, 43.0465831, 0.0 ], [ -9.2686234, 43.0458474, 0.0 ], [ -9.2694677, 43.045705, 0.0 ], [ -9.269825, 43.0449455, 0.0 ], [ -9.2698574, 43.0442691, 0.0 ], [ -9.2701659, 43.0438538, 0.0 ], [ -9.2708317, 43.0435334, 0.0 ], [ -9.2713026, 43.0429281, 0.0 ], [ -9.2718709, 43.0432841, 0.0 ], [ -9.2725853, 43.043296, 0.0 ], [ -9.2730887, 43.0432011, 0.0 ], [ -9.2735758, 43.043474, 0.0 ], [ -9.2744364, 43.0432841, 0.0 ], [ -9.2755406, 43.0432604, 0.0 ], [ -9.2767259, 43.0428213, 0.0 ], [ -9.2767259, 43.0428213, 0.0 ] ] ] } },
{ "type": "Feature", "properties": { "name": null, "cmt": null, "peligrosidad_dificultad": "p0-d0" }, "geometry": { "type": "MultiLineString", "coordinates": [ [ [ -9.2973292, 43.0538537, 0.0 ], [ -9.2970068, 43.0544473, 0.0 ], [ -9.2964008, 43.0550221, 0.0 ] ] ] } },
{ "type": "Feature", "properties": { "name": null, "cmt": null, "peligrosidad_dificultad": "p0-d0" }, "geometry": { "type": "MultiLineString", "coordinates": [ [ [ -9.2807763, 43.0373397, 0.0 ], [ -9.2795135, 43.0368684, 0.0 ], [ -9.2788687, 43.0371041, 0.0 ], [ -9.2777941, 43.035808, 0.0 ], [ -9.2779015, 43.0352189, 0.0 ], [ -9.2795135, 43.0339031, 0.0 ], [ -9.2801315, 43.0327248, 0.0 ], [ -9.2802658, 43.0314679, 0.0 ], [ -9.2806151, 43.0298968, 0.0 ] ] ] } }
]
}
