{
"type": "FeatureCollection",
"name": "PuntosDeInteres",
"crs": { "type": "name", "properties": { "name": "urn:ogc:def:crs:OGC:1.3:CRS84" } },
"xy_coordinate_resolution": 1e-06,
"features": [
{ "type": "Feature", "properties": { "ele": 0.0, "time": "2020-08-11T23:37:04Z", "magvar": null, "geoidheight": null, "name": "Praia de O Coido", "cmt": "Praia de O Coido", "desc": "Praia de O Coido", "src": null, "link1_href": null, "link1_text": null, "link1_type": null, "link2_href": null, "link2_text": null, "link2_type": null, "sym": null, "type": null, "fix": null, "sat": null, "hdop": null, "vdop": null, "pdop": null, "ageofdgpsdata": null, "dgpsid": null }, "geometry": { "type": "Point", "coordinates": [ -9.218659, 43.102534, 0.0 ] } },
{ "type": "Feature", "properties": { "ele": 0.0, "time": "2020-08-11T23:37:04Z", "magvar": null, "geoidheight": null, "name": "Praia de Lourido", "cmt": "Praia de Lourido", "desc": "Praia de Lourido", "src": null, "link1_href": null, "link1_text": null, "link1_type": null, "link2_href": null, "link2_text": null, "link2_type": null, "sym": null, "type": null, "fix": null, "sat": null, "hdop": null, "vdop": null, "pdop": null, "ageofdgpsdata": null, "dgpsid": null }, "geometry": { "type": "Point", "coordinates": [ -9.222392, 43.087262, 0.0 ] } },
{ "type": "Feature", "properties": { "ele": 0.0, "time": "2020-08-11T23:37:04Z", "magvar": null, "geoidheight": null, "name": "Monte Cachelmo", "cmt": "Monte Cachelmo", "desc": "Monte Cachelmo", "src": null, "link1_href": null, "link1_text": null, "link1_type": null, "link2_href": null, "link2_text": null, "link2_type": null, "sym": null, "type": null, "fix": null, "sat": null, "hdop": null, "vdop": null, "pdop": null, "ageofdgpsdata": null, "dgpsid": null }, "geometry": { "type": "Point", "coordinates": [ -9.238243, 43.086005, 0.0 ] } },
{ "type": "Feature", "properties": { "ele": 0.0, "time": "2020-08-11T23:37:04Z", "magvar": null, "geoidheight": null, "name": "Praia de Arnela", "cmt": "Praia de Arnela", "desc": "Praia de Arnela", "src": null, "link1_href": null, "link1_text": null, "link1_type": null, "link2_href": null, "link2_text": null, "link2_type": null, "sym": null, "type": null, "fix": null, "sat": null, "hdop": null, "vdop": null, "pdop": null, "ageofdgpsdata": null, "dgpsid": null }, "geometry": { "type": "Point", "coordinates": [ -9.244026, 43.083622, 0.0 ] } },
{ "type": "Feature", "properties": { "ele": 0.0, "time": "2020-08-11T23:37:04Z", "magvar": null, "geoidheight": null, "name": "Punta Buitra", "cmt": "Punta Buitra", "desc": "Punta Buitra", "src": null, "link1_href": null, "link1_text": null, "link1_type": null, "link2_href": null, "link2_text": null, "link2_type": null, "sym": null, "type": null, "fix": null, "sat": null, "hdop": null, "vdop": null, "pdop": null, "ageofdgpsdata": null, "dgpsid": null }, "geometry": { "type": "Point", "coordinates": [ -9.253922, 43.089332, 0.0 ] } },
{ "type": "Feature", "properties": { "ele": 0.0, "time": "2020-08-11T23:37:04Z", "magvar": null, "geoidheight": null, "name": "Monte Buitra", "cmt": "Monte Buitra", "desc": "Monte Buitra", "src": null, "link1_href": null, "link1_text": null, "link1_type": null, "link2_href": null, "link2_text": null, "link2_type": null, "sym": null, "type": null, "fix": null, "sat": null, "hdop": null, "vdop": null, "pdop": null, "ageofdgpsdata": null, "dgpsid": null }, "geometry": { "type": "Point", "coordinates": [ -9.250959, 43.087293, 0.0 ] } },
{ "type": "Feature", "properties": { "ele": 0.0, "time": "2020-08-11T23:37:04Z", "magvar": null, "geoidheight": null, "name": "Coído de Cuño", "cmt": "Coído de Cuño", "desc": "Coído de Cuño", "src": null, "link1_href": null, "link1_text": null, "link1_type": null, "link2_href": null, "link2_text": null, "link2_type": null, "sym": null, "type": null, "fix": null, "sat": null, "hdop": null, "vdop": null, "pdop": null, "ageofdgpsdata": null, "dgpsid": null }, "geometry": { "type": "Point", "coordinates": [ -9.249136, 43.072931, 0.0 ] } },
{ "type": "Feature", "properties": { "ele": 0.0, "time": "2020-08-11T23:37:04Z", "magvar": null, "geoidheight": null, "name": "Regato de Cuño (subir hacia al monte)", "cmt": "Regato de Cuño (subir hacia al monte)", "desc": "Regato de Cuño (subir hacia al monte)", "src": null, "link1_href": null, "link1_text": null, "link1_type": null, "link2_href": null, "link2_text": null, "link2_type": null, "sym": null, "type": null, "fix": null, "sat": null, "hdop": null, "vdop": null, "pdop": null, "ageofdgpsdata": null, "dgpsid": null }, "geometry": { "type": "Point", "coordinates": [ -9.249022, 43.07154, 0.0 ] } },
{ "type": "Feature", "properties": { "ele": 0.0, "time": "2020-08-11T23:37:04Z", "magvar": null, "geoidheight": null, "name": "No Pasar: Acantilados", "cmt": "No Pasar: Acantilados", "desc": "No Pasar: Acantilados", "src": null, "link1_href": null, "link1_text": null, "link1_type": null, "link2_href": null, "link2_text": null, "link2_type": null, "sym": null, "type": null, "fix": null, "sat": null, "hdop": null, "vdop": null, "pdop": null, "ageofdgpsdata": null, "dgpsid": null }, "geometry": { "type": "Point", "coordinates": [ -9.248873, 43.070743, 0.0 ] } },
{ "type": "Feature", "properties": { "ele": 0.0, "time": "2020-08-11T23:37:04Z", "magvar": null, "geoidheight": null, "name": "Monte Pedrouzo", "cmt": "Monte Pedrouzo", "desc": "Monte Pedrouzo", "src": null, "link1_href": null, "link1_text": null, "link1_type": null, "link2_href": null, "link2_text": null, "link2_type": null, "sym": null, "type": null, "fix": null, "sat": null, "hdop": null, "vdop": null, "pdop": null, "ageofdgpsdata": null, "dgpsid": null }, "geometry": { "type": "Point", "coordinates": [ -9.249087, 43.057827, 0.0 ] } },
{ "type": "Feature", "properties": { "ele": 0.0, "time": "2020-08-11T23:37:04Z", "magvar": null, "geoidheight": null, "name": "Ribeira de Viseu", "cmt": "Ribeira de Viseu", "desc": "Ribeira de Viseu", "src": null, "link1_href": null, "link1_text": null, "link1_type": null, "link2_href": null, "link2_text": null, "link2_type": null, "sym": null, "type": null, "fix": null, "sat": null, "hdop": null, "vdop": null, "pdop": null, "ageofdgpsdata": null, "dgpsid": null }, "geometry": { "type": "Point", "coordinates": [ -9.256192, 43.05061, 0.0 ] } },
{ "type": "Feature", "properties": { "ele": 0.0, "time": "2020-08-11T23:37:04Z", "magvar": null, "geoidheight": null, "name": "Praia de Moreira", "cmt": "Praia de Moreira", "desc": "Praia de Moreira", "src": null, "link1_href": null, "link1_text": null, "link1_type": null, "link2_href": null, "link2_text": null, "link2_type": null, "sym": null, "type": null, "fix": null, "sat": null, "hdop": null, "vdop": null, "pdop": null, "ageofdgpsdata": null, "dgpsid": null }, "geometry": { "type": "Point", "coordinates": [ -9.2627, 43.048296, 0.0 ] } },
{ "type": "Feature", "properties": { "ele": 0.0, "time": "2020-08-11T23:37:04Z", "magvar": null, "geoidheight": null, "name": "Faro Touriñán", "cmt": "Faro Touriñán", "desc": "Faro Touriñán", "src": null, "link1_href": null, "link1_text": null, "link1_type": null, "link2_href": null, "link2_text": null, "link2_type": null, "sym": null, "type": null, "fix": null, "sat": null, "hdop": null, "vdop": null, "pdop": null, "ageofdgpsdata": null, "dgpsid": null }, "geometry": { "type": "Point", "coordinates": [ -9.298411, 43.053186, 0.0 ] } },
{ "type": "Feature", "properties": { "ele": 0.0, "time": "2020-08-11T23:37:04Z", "magvar": null, "geoidheight": null, "name": "Punta da Insua", "cmt": "Punta da Insua", "desc": "Punta da Insua", "src": null, "link1_href": null, "link1_text": null, "link1_type": null, "link2_href": null, "link2_text": null, "link2_type": null, "sym": null, "type": null, "fix": null, "sat": null, "hdop": null, "vdop": null, "pdop": null, "ageofdgpsdata": null, "dgpsid": null }, "geometry": { "type": "Point", "coordinates": [ -9.300527, 43.047514, 0.0 ] } },
{ "type": "Feature", "properties": { "ele": 0.0, "time": "2020-08-11T23:37:04Z", "magvar": null, "geoidheight": null, "name": "Coído de Touriñán", "cmt": "Coído de Touriñán", "desc": "Coído de Touriñán", "src": null, "link1_href": null, "link1_text": null, "link1_type": null, "link2_href": null, "link2_text": null, "link2_type": null, "sym": null, "type": null, "fix": null, "sat": null, "hdop": null, "vdop": null, "pdop": null, "ageofdgpsdata": null, "dgpsid": null }, "geometry": { "type": "Point", "coordinates": [ -9.2882, 43.04412, 0.0 ] } },
{ "type": "Feature", "properties": { "ele": 0.0, "time": "2020-08-11T23:37:04Z", "magvar": null, "geoidheight": null, "name": "Mirador de Touriñán", "cmt": "Mirador de Touriñán", "desc": "Mirador de Touriñán", "src": null, "link1_href": null, "link1_text": null, "link1_type": null, "link2_href": null, "link2_text": null, "link2_type": null, "sym": null, "type": null, "fix": null, "sat": null, "hdop": null, "vdop": null, "pdop": null, "ageofdgpsdata": null, "dgpsid": null }, "geometry": { "type": "Point", "coordinates": [ -9.279804, 43.03403, 0.0 ] } },
{ "type": "Feature", "properties": { "ele": 0.0, "time": "2020-08-11T23:37:04Z", "magvar": null, "geoidheight": null, "name": "Talón", "cmt": "Talón", "desc": "Talón", "src": null, "link1_href": null, "link1_text": null, "link1_type": null, "link2_href": null, "link2_text": null, "link2_type": null, "sym": null, "type": null, "fix": null, "sat": null, "hdop": null, "vdop": null, "pdop": null, "ageofdgpsdata": null, "dgpsid": null }, "geometry": { "type": "Point", "coordinates": [ -9.275754, 43.016994, 0.0 ] } },
{ "type": "Feature", "properties": { "ele": 0.0, "time": "2020-08-11T23:37:04Z", "magvar": null, "geoidheight": null, "name": "Praia de Nemiña", "cmt": "Praia de Nemiña", "desc": "Praia de Nemiña", "src": null, "link1_href": null, "link1_text": null, "link1_type": null, "link2_href": null, "link2_text": null, "link2_type": null, "sym": null, "type": null, "fix": null, "sat": null, "hdop": null, "vdop": null, "pdop": null, "ageofdgpsdata": null, "dgpsid": null }, "geometry": { "type": "Point", "coordinates": [ -9.268447, 43.012316, 0.0 ] } },
{ "type": "Feature", "properties": { "ele": 0.0, "time": "2020-08-11T23:37:04Z", "magvar": null, "geoidheight": null, "name": "Café Bar O Xardin", "cmt": "Café Bar O Xardin", "desc": "Café Bar O Xardin", "src": null, "link1_href": null, "link1_text": null, "link1_type": null, "link2_href": null, "link2_text": null, "link2_type": null, "sym": null, "type": null, "fix": null, "sat": null, "hdop": null, "vdop": null, "pdop": null, "ageofdgpsdata": null, "dgpsid": null }, "geometry": { "type": "Point", "coordinates": [ -9.215779, 43.103305, 0.0 ] } },
{ "type": "Feature", "properties": { "ele": 0.0, "time": "2020-08-11T23:37:04Z", "magvar": null, "geoidheight": null, "name": "Casa Fontequeiroso", "cmt": "Casa Fontequeiroso", "desc": "Casa Fontequeiroso", "src": null, "link1_href": null, "link1_text": null, "link1_type": null, "link2_href": null, "link2_text": null, "link2_type": null, "sym": null, "type": null, "fix": null, "sat": null, "hdop": null, "vdop": null, "pdop": null, "ageofdgpsdata": null, "dgpsid": null }, "geometry": { "type": "Point", "coordinates": [ -9.264434, 43.028318, 0.0 ] } },
{ "type": "Feature", "properties": { "ele": 0.0, "time": "2020-08-11T23:37:04Z", "magvar": null, "geoidheight": null, "name": "Bar A Marina", "cmt": "Bar A Marina", "desc": "Bar A Marina", "src": null, "link1_href": null, "link1_text": null, "link1_type": null, "link2_href": null, "link2_text": null, "link2_type": null, "sym": null, "type": null, "fix": null, "sat": null, "hdop": null, "vdop": null, "pdop": null, "ageofdgpsdata": null, "dgpsid": null }, "geometry": { "type": "Point", "coordinates": [ -9.217185, 43.10571, 0.0 ] } },
{ "type": "Feature", "properties": { "ele": 0.0, "time": "2020-08-11T23:37:04Z", "magvar": null, "geoidheight": null, "name": "Casa de Trillo", "cmt": "Casa de Trillo", "desc": "Casa de Trillo", "src": null, "link1_href": null, "link1_text": null, "link1_type": null, "link2_href": null, "link2_text": null, "link2_type": null, "sym": null, "type": null, "fix": null, "sat": null, "hdop": null, "vdop": null, "pdop": null, "ageofdgpsdata": null, "dgpsid": null }, "geometry": { "type": "Point", "coordinates": [ -9.192214, 43.045542, 0.0 ] } },
{ "type": "Feature", "properties": { "ele": 0.0, "time": "2020-08-11T23:37:04Z", "magvar": null, "geoidheight": null, "name": "Casa Ceferinos", "cmt": "Casa Ceferinos", "desc": "Casa Ceferinos", "src": null, "link1_href": null, "link1_text": null, "link1_type": null, "link2_href": null, "link2_text": null, "link2_type": null, "sym": null, "type": null, "fix": null, "sat": null, "hdop": null, "vdop": null, "pdop": null, "ageofdgpsdata": null, "dgpsid": null }, "geometry": { "type": "Point", "coordinates": [ -9.228708, 43.010986, 0.0 ] } },
{ "type": "Feature", "properties": { "ele": 0.0, "time": "2020-08-11T23:37:04Z", "magvar": null, "geoidheight": null, "name": "Casa de Lema", "cmt": "Casa de Lema", "desc": "Casa de Lema", "src": null, "link1_href": null, "link1_text": null, "link1_type": null, "link2_href": null, "link2_text": null, "link2_type": null, "sym": null, "type": null, "fix": null, "sat": null, "hdop": null, "vdop": null, "pdop": null, "ageofdgpsdata": null, "dgpsid": null }, "geometry": { "type": "Point", "coordinates": [ -9.181508, 43.053749, 0.0 ] } },
{ "type": "Feature", "properties": { "ele": 0.0, "time": "2020-08-11T23:37:04Z", "magvar": null, "geoidheight": null, "name": "Casa Castiñeira", "cmt": "Casa Castiñeira", "desc": "Casa Castiñeira", "src": null, "link1_href": null, "link1_text": null, "link1_type": null, "link2_href": null, "link2_text": null, "link2_type": null, "sym": null, "type": null, "fix": null, "sat": null, "hdop": null, "vdop": null, "pdop": null, "ageofdgpsdata": null, "dgpsid": null }, "geometry": { "type": "Point", "coordinates": [ -9.195278, 43.014571, 0.0 ] } },
{ "type": "Feature", "properties": { "ele": 0.0, "time": "2020-08-11T23:37:04Z", "magvar": null, "geoidheight": null, "name": "Bar Xaburil", "cmt": "Bar Xaburil", "desc": "Bar Xaburil", "src": null, "link1_href": null, "link1_text": null, "link1_type": null, "link2_href": null, "link2_text": null, "link2_type": null, "sym": null, "type": null, "fix": null, "sat": null, "hdop": null, "vdop": null, "pdop": null, "ageofdgpsdata": null, "dgpsid": null }, "geometry": { "type": "Point", "coordinates": [ -9.269013, 43.012262, 0.0 ] } }
]
}
