{
"type": "FeatureCollection",
"name": "ruta",
"crs": { "type": "name", "properties": { "name": "urn:ogc:def:crs:OGC:1.3:CRS84" } },
"xy_coordinate_resolution": 1e-07,
"features": [
{ "type": "Feature", "properties": { "name": "O Camiño dos Faros: Etapa 7 (Muxía-Nemiña) - Track oficial A...", "peligrosidad_dificultad": "p0-d0" }, "geometry": { "type": "MultiLineString", "coordinates": [ [ [ -9.2949908, 43.0555381, 48.100102725387138 ], [ -9.295014, 43.055506, 47.96 ], [ -9.295387, 43.055504, 39.494 ], [ -9.295789, 43.055702, 43.646 ], [ -9.29583, 43.055531, 47.088 ], [ -9.296466, 43.055069, 50.916 ], [ -9.296938, 43.055374, 42.708 ], [ -9.297875, 43.054969, 39.729 ], [ -9.297982, 43.054613, 39.718 ], [ -9.297543, 43.053811, 44.288 ], [ -9.298367, 43.052384, 54.043 ], [ -9.298315, 43.051818, 48.632 ], [ -9.297997, 43.051231, 43.956 ], [ -9.298081, 43.050584, 43.99 ], [ -9.297789, 43.04993, 40.984 ], [ -9.298019, 43.049415, 32.151 ], [ -9.297698, 43.048988, 28.501 ], [ -9.297879, 43.048398, 20.111 ], [ -9.296868, 43.04809, 28.308 ], [ -9.296275, 43.046837, 30.16 ], [ -9.296004, 43.046616, 30.129 ], [ -9.295354, 43.046613, 30.129 ], [ -9.29391, 43.045463, 31.954 ], [ -9.293472, 43.044854, 35.533 ], [ -9.292886, 43.044457, 32.367 ], [ -9.291638, 43.044082, 24.781 ], [ -9.291196, 43.043743, 15.315 ], [ -9.290514, 43.043935, 8.796 ], [ -9.288463, 43.044915, 5.731 ], [ -9.287876, 43.044977, 8.324 ], [ -9.285414, 43.043337, 26.208 ], [ -9.284464, 43.043179, 29.544 ], [ -9.28281, 43.041613, 43.693 ], [ -9.281929, 43.038218, 68.213 ], [ -9.281027, 43.037562, 74.988 ], [ -9.281782, 43.037202, 71.297 ], [ -9.281789, 43.03678, 66.551 ], [ -9.2813, 43.036078, 58.225 ], [ -9.281522, 43.035998, 55.799 ], [ -9.281389, 43.035799, 56.143 ], [ -9.281471, 43.03528, 51.864 ], [ -9.281885, 43.034696, 46.51 ], [ -9.281864, 43.033944, 45.508 ], [ -9.282073, 43.033131, 51.269 ], [ -9.281988, 43.032723, 52.148 ], [ -9.281799, 43.032209, 52.898 ], [ -9.281236, 43.031412, 58.813 ], [ -9.281126, 43.029935, 68.612 ], [ -9.280719, 43.029492, 78.016 ], [ -9.280808, 43.029046, 79.35 ], [ -9.279759, 43.027644, 81.824 ], [ -9.279453, 43.026311, 80.061 ], [ -9.278768, 43.025293, 82.821 ], [ -9.27824, 43.023753, 87.413 ], [ -9.277909, 43.022473, 90.208 ], [ -9.277739, 43.018945, 69.661 ], [ -9.277499, 43.017877, 69.66 ], [ -9.2769, 43.017131, 69.69 ], [ -9.276092, 43.016879, 69.635 ], [ -9.275836, 43.016939, 69.614 ], [ -9.275598, 43.016719, 49.988 ], [ -9.275416, 43.017062, 44.172 ], [ -9.274908, 43.016818, 39.466 ], [ -9.274837, 43.016303, 39.537 ], [ -9.27407, 43.015631, 39.849 ], [ -9.27357, 43.015386, 38.513 ], [ -9.272711, 43.014391, 31.108 ], [ -9.272409, 43.01376, 28.488 ], [ -9.272402, 43.013446, 26.597 ], [ -9.271917, 43.013167, 23.277 ], [ -9.271102, 43.012987, 18.852 ], [ -9.269716, 43.013237, 9.651 ], [ -9.26901, 43.012638, 5.285 ], [ -9.268904, 43.012308, 1.099 ], [ -9.268466, 43.012492, 4.163 ] ] ] } },
{ "type": "Feature", "properties": { "name": "O Camiño dos Faros: Etapa 7 (Muxía-Nemiña) - Track oficial A...", "peligrosidad_dificultad": "p1-d0" }, "geometry": { "type": "MultiLineString", "coordinates": [ [ [ -9.218579, 43.102866, 7.654 ], [ -9.218574, 43.102167, 9.256 ], [ -9.219914, 43.100805, 12.911 ], [ -9.220313, 43.098637, 12.908 ], [ -9.220954, 43.09694, 12.99 ], [ -9.220323, 43.095163, 12.959 ], [ -9.220385, 43.092801, 12.959 ], [ -9.219724, 43.090831, 12.944 ], [ -9.219896, 43.089116, 12.943 ], [ -9.2195765, 43.0882985, 12.97673353960603 ] ] ] } },
{ "type": "Feature", "properties": { "name": "O Camiño dos Faros: Etapa 7 (Muxía-Nemiña) - Track oficial A...", "peligrosidad_dificultad": "p0-d3" }, "geometry": { "type": "MultiLineString", "coordinates": [ [ [ -9.2326755, 43.0895616, 14.480224806565928 ], [ -9.233355, 43.089555, 16.908 ], [ -9.23472, 43.089192, 46.363 ], [ -9.235182, 43.088995, 67.442 ], [ -9.235295, 43.088761, 77.932 ], [ -9.235641, 43.08883, 88.387 ], [ -9.236394, 43.08865, 92.276 ], [ -9.236565, 43.088255, 92.25 ], [ -9.236569, 43.087779, 128.494 ], [ -9.236867, 43.087451, 128.248 ], [ -9.237096, 43.08683, 146.995 ], [ -9.2372626, 43.086753, 147.778845251935138 ] ] ] } },
{ "type": "Feature", "properties": { "name": "O Camiño dos Faros: Etapa 7 (Muxía-Nemiña) - Track oficial A...", "peligrosidad_dificultad": "p0-d0" }, "geometry": { "type": "MultiLineString", "coordinates": [ [ [ -9.2195765, 43.0882985, 12.97673353960603 ], [ -9.219574, 43.088292, 12.977 ], [ -9.220025, 43.088317, 19.691 ], [ -9.22001, 43.088072, 4.655 ], [ -9.222285, 43.087358, 3.546 ], [ -9.226049, 43.086978, 6.488 ], [ -9.226427, 43.087138, 9.616 ], [ -9.226432, 43.087637, 10.108 ], [ -9.226219, 43.088176, 11.169 ], [ -9.22664, 43.088496, 11.248 ], [ -9.226667, 43.088809, 11.288 ], [ -9.227941, 43.088772, 11.293 ], [ -9.228242, 43.089054, 17.392 ], [ -9.228929, 43.089325, 17.366 ], [ -9.229882, 43.090211, 17.32 ], [ -9.230699, 43.090455, 17.434 ], [ -9.231308, 43.090267, 17.885 ], [ -9.231656, 43.089849, 16.489 ], [ -9.232126, 43.089567, 12.517 ], [ -9.2326755, 43.0895616, 14.480224806565928 ] ] ] } },
{ "type": "Feature", "properties": { "name": "O Camiño dos Faros: Etapa 7 (Muxía-Nemiña) - Track oficial A...", "peligrosidad_dificultad": "p0-d0" }, "geometry": { "type": "MultiLineString", "coordinates": [ [ [ -9.2372626, 43.086753, 147.778845251935138 ], [ -9.238, 43.086412, 151.249 ], [ -9.238168, 43.085548, 160.323 ], [ -9.237923, 43.085168, 154.408 ], [ -9.237989, 43.084641, 150.574 ], [ -9.239381, 43.084797, 150.133 ], [ -9.241325, 43.08479, 69.593 ], [ -9.241358, 43.084295, 69.518 ], [ -9.240777, 43.083062, 69.597 ], [ -9.240819, 43.082592, 69.521 ], [ -9.241344, 43.082094, 69.575 ], [ -9.24295, 43.081485, 69.589 ], [ -9.243472, 43.080417, 69.588 ], [ -9.243887, 43.080089, 58.624 ], [ -9.243194, 43.077203, 62.626 ], [ -9.243312, 43.077062, 62.608 ], [ -9.244415, 43.076927, 103.423 ], [ -9.244727, 43.077098, 104.932 ], [ -9.24742, 43.081588, 106.472 ], [ -9.248188, 43.083113, 106.417 ], [ -9.248415, 43.083883, 106.486 ], [ -9.248567, 43.085467, 110.71 ], [ -9.248418, 43.086281, 109.844 ], [ -9.248619, 43.087175, 110.228 ], [ -9.249575, 43.089042, 117.411 ], [ -9.250367, 43.089347, 116.021 ], [ -9.252516, 43.089195, 116.003 ], [ -9.253983, 43.089377, 94.508 ], [ -9.254054, 43.089222, 93.426 ], [ -9.252752, 43.088633, 112.665 ], [ -9.251552, 43.087779, 143.465 ], [ -9.250857, 43.08779, 143.45 ], [ -9.250445, 43.086766, 143.479 ], [ -9.250177, 43.086438, 143.493 ], [ -9.250249, 43.085385, 143.417 ], [ -9.249825, 43.084673, 143.441 ], [ -9.249897, 43.083727, 108.845 ], [ -9.249655, 43.083085, 105.147 ], [ -9.249744, 43.082842, 97.911 ], [ -9.250702, 43.082075, 69.808 ], [ -9.249807, 43.081848, 69.899 ], [ -9.249511, 43.081603, 69.898 ], [ -9.249488, 43.081142, 82.158 ], [ -9.249912, 43.080139, 73.073 ], [ -9.2498826, 43.0799184, 71.004162073416438 ] ] ] } },
{ "type": "Feature", "properties": { "name": "O Camiño dos Faros: Etapa 7 (Muxía-Nemiña) - Track oficial A...", "peligrosidad_dificultad": "p0-d0" }, "geometry": { "type": "MultiLineString", "coordinates": [ [ [ -9.2497424, 43.0624206, 125.970478656122225 ], [ -9.249378, 43.062142, 125.983 ], [ -9.248805, 43.062055, 125.925 ], [ -9.248112, 43.061377, 218.317 ], [ -9.2485135, 43.0610882, 224.528689399157713 ] ] ] } },
{ "type": "Feature", "properties": { "name": "O Camiño dos Faros: Etapa 7 (Muxía-Nemiña) - Track oficial A...", "peligrosidad_dificultad": "p0-d0" }, "geometry": { "type": "MultiLineString", "coordinates": [ [ [ -9.2496513, 43.0754312, 17.456899767335493 ], [ -9.248689, 43.074508, 9.28 ], [ -9.24844, 43.073884, 7.12 ], [ -9.248752, 43.072912, 7.055 ], [ -9.248533, 43.071999, 7.254 ], [ -9.2486, 43.071746, 8.788 ], [ -9.247602, 43.071496, 22.592 ], [ -9.247252, 43.071601, 17.866 ], [ -9.245974, 43.070738, 40.135 ], [ -9.246901, 43.07014, 67.986 ], [ -9.246914, 43.069394, 95.114 ], [ -9.246751, 43.069269, 99.108 ], [ -9.247288, 43.068939, 106.148 ], [ -9.247991, 43.068134, 106.257 ], [ -9.248304, 43.06734, 106.297 ], [ -9.248287, 43.066175, 96.962 ], [ -9.2488031, 43.065534, 96.986140558584481 ] ] ] } },
{ "type": "Feature", "properties": { "name": "O Camiño dos Faros: Etapa 7 (Muxía-Nemiña) - Track oficial A...", "peligrosidad_dificultad": "p0-d0" }, "geometry": { "type": "MultiLineString", "coordinates": [ [ [ -9.2485135, 43.0610882, 224.528689399157713 ], [ -9.248913, 43.060801, 230.708 ], [ -9.248955, 43.060496, 230.753 ], [ -9.249387, 43.060129, 245.672 ], [ -9.24912, 43.059399, 256.662 ], [ -9.248649, 43.059022, 258.827 ], [ -9.249138, 43.058708, 258.876 ], [ -9.249338, 43.058284, 258.83 ], [ -9.251246, 43.058174, 258.814 ], [ -9.251418, 43.057712, 258.818 ], [ -9.252094, 43.056823, 258.847 ], [ -9.253143, 43.056138, 258.829 ], [ -9.254358, 43.056158, 258.821 ], [ -9.25493, 43.055803, 136.208 ], [ -9.254895, 43.055258, 135.769 ], [ -9.255244, 43.052848, 149.748 ], [ -9.255958, 43.050551, 161.038 ], [ -9.2561966, 43.0506001, 158.919187672270112 ] ] ] } },
{ "type": "Feature", "properties": { "name": "O Camiño dos Faros: Etapa 7 (Muxía-Nemiña) - Track oficial A...", "peligrosidad_dificultad": "p2-d0" }, "geometry": { "type": "MultiLineString", "coordinates": [ [ [ -9.2926383, 43.0555901, 52.1613601580639 ], [ -9.29288, 43.055931, 48.748 ], [ -9.293608, 43.056111, 48.713 ], [ -9.294074, 43.056055, 49.482 ], [ -9.294801, 43.055801, 49.246 ], [ -9.2949908, 43.0555381, 48.100102725387138 ] ] ] } },
{ "type": "Feature", "properties": { "name": "O Camiño dos Faros: Etapa 7 (Muxía-Nemiña) - Track oficial A...", "peligrosidad_dificultad": "p0-d0" }, "geometry": { "type": "MultiLineString", "coordinates": [ [ [ -9.2611765, 43.0486868, 21.019931866638501 ], [ -9.261535, 43.048295, 16.008 ], [ -9.26172, 43.048263, 14.534 ], [ -9.262036, 43.047744, 10.123 ], [ -9.263219, 43.047884, 6.653 ], [ -9.264266, 43.047682, 17.688 ], [ -9.266127, 43.047831, 39.097 ], [ -9.266951, 43.047166, 48.671 ], [ -9.267756, 43.046742, 57.265 ], [ -9.267786, 43.046533, 59.339 ], [ -9.267507, 43.046267, 62.876 ], [ -9.267479, 43.045241, 73.69 ], [ -9.267625, 43.044827, 77.519 ], [ -9.267084, 43.043678, 83.108 ], [ -9.267424, 43.043249, 85.452 ], [ -9.267288, 43.041847, 92.791 ], [ -9.267412, 43.041174, 98.811 ], [ -9.273025, 43.040252, 92.076 ], [ -9.276594, 43.041097, 92.065 ], [ -9.276798, 43.042682, 48.819 ], [ -9.277028, 43.04248, 48.823 ], [ -9.278039, 43.042649, 40.887 ], [ -9.278846, 43.04299, 34.983 ], [ -9.27926, 43.04299, 34.225 ], [ -9.279845, 43.043487, 34.417 ], [ -9.280828, 43.044022, 32.408 ], [ -9.281915, 43.044049, 29.953 ], [ -9.2822, 43.044177, 31.872 ], [ -9.284406, 43.043213, 31.552 ], [ -9.286078, 43.045719, 23.657 ], [ -9.290287, 43.050661, 32.316 ], [ -9.290769, 43.050903, 36.98 ], [ -9.289991, 43.05139, 34.014 ], [ -9.289998, 43.051559, 36.558 ], [ -9.290782, 43.052152, 51.746 ], [ -9.291293, 43.052203, 52.688 ], [ -9.29176, 43.052646, 55.516 ], [ -9.291817, 43.053024, 58.008 ], [ -9.292382, 43.053907, 63.839 ], [ -9.292329, 43.055154, 56.528 ], [ -9.2926383, 43.0555901, 52.1613601580639 ] ] ] } },
{ "type": "Feature", "properties": { "name": "O Camiño dos Faros: Etapa 7 (Muxía-Nemiña) - Track oficial A...", "peligrosidad_dificultad": "p2-d0" }, "geometry": { "type": "MultiLineString", "coordinates": [ [ [ -9.2498826, 43.0799184, 71.004162073416438 ], [ -9.249848, 43.079659, 68.572 ], [ -9.250119, 43.079311, 61.476 ], [ -9.250882, 43.078936, 61.46 ], [ -9.251403, 43.078905, 61.424 ], [ -9.251081, 43.078481, 30.869 ], [ -9.251394, 43.077761, 30.104 ], [ -9.251105, 43.076732, 28.524 ], [ -9.25058, 43.076124, 25.408 ], [ -9.249846, 43.075618, 19.111 ], [ -9.2496513, 43.0754312, 17.456899767335493 ] ] ] } },
{ "type": "Feature", "properties": { "name": "O Camiño dos Faros: Etapa 7 (Muxía-Nemiña) - Track oficial A...", "peligrosidad_dificultad": "p0-d2" }, "geometry": { "type": "MultiLineString", "coordinates": [ [ [ -9.2488031, 43.065534, 96.986140558584481 ], [ -9.248907, 43.065405, 96.991 ], [ -9.249958, 43.06504, 117.855 ], [ -9.250424, 43.064353, 118.079 ], [ -9.24996, 43.062587, 125.963 ], [ -9.2497424, 43.0624206, 125.970478656122225 ] ] ] } },
{ "type": "Feature", "properties": { "name": "O Camiño dos Faros: Etapa 7 (Muxía-Nemiña) - Track oficial A...", "peligrosidad_dificultad": "p0-d3" }, "geometry": { "type": "MultiLineString", "coordinates": [ [ [ -9.2561966, 43.0506001, 158.919187672270112 ], [ -9.256337, 43.050629, 157.673 ], [ -9.257232, 43.051235, 131.392 ], [ -9.258042, 43.050294, 99.966 ], [ -9.25903, 43.049799, 89.16 ], [ -9.259411, 43.049336, 85.264 ], [ -9.260668, 43.049005, 35.191 ], [ -9.260764, 43.048838, 30.481 ], [ -9.261148, 43.048718, 21.419 ], [ -9.2611765, 43.0486868, 21.019931866638501 ] ] ] } }
]
}
